{
  "type": "FeatureCollection",
  "crs": {
    "type": "name",
    "properties": {
      "name": "EPSG:4326"
    }
  },
  "features": [
    {
      "type": "Feature",
      "id": 1,
      "geometry": {
        "type": "Polygon",
        "coordinates": [
          [
            [15.8723283946682, 45.6729177651128],
            [15.872726532573, 45.6728571599139],
            [15.8726075494014, 45.6724836771201],
            [15.872211308112, 45.6725416756609],
            [15.8723283946682, 45.6729177651128]
          ]
        ]
      },
      "properties": {
        "FID": 1,
        "NAZIV": "Područna škola Kupinečki Kraljevec",
        "Tip": "Lokacije za prihvat osoba",
        "G_cetvrt": "Brezovica",
        "Povrsina_ha": 0.13496071312698274,
        "seq_id": 1,
        "GlobalID": "c24867ed-dc81-4929-a870-6f6d0545fdad"
      }
    },
    {
      "type": "Feature",
      "id": 3,
      "geometry": {
        "type": "Polygon",
        "coordinates": [
          [
            [15.909081158757, 45.7249920563581],
            [15.9081180327859, 45.7244690516189],
            [15.9070582197012, 45.7254193855711],
            [15.9068397243317, 45.7253246739546],
            [15.9068402195068, 45.7252778873568],
            [15.9070166919324, 45.7252854872148],
            [15.9074603628219, 45.7248432951574],
            [15.9068577550842, 45.7245226723646],
            [15.9069203127747, 45.7244728669598],
            [15.9064315170244, 45.7242196731773],
            [15.9050167853968, 45.7253385891683],
            [15.9053485020966, 45.7260053865887],
            [15.9055944008956, 45.7257660374947],
            [15.9059381235458, 45.7257511149191],
            [15.9064870205491, 45.7257372573554],
            [15.9067013471063, 45.7257751331552],
            [15.9070485691957, 45.7258805397625],
            [15.9076851931884, 45.7261445229971],
            [15.909081158757, 45.7249920563581]
          ]
        ]
      },
      "properties": {
        "FID": 3,
        "NAZIV": "NK Brezovica",
        "Tip": "Evakuacijska površina - šatorsko naselje",
        "G_cetvrt": "Brezovica",
        "Povrsina_ha": 3.5510089446798134,
        "seq_id": 2,
        "GlobalID": "81e8bc39-7e59-407c-bacb-1e55ef9ca128"
      }
    },
    {
      "type": "Feature",
      "id": 4,
      "geometry": {
        "type": "Polygon",
        "coordinates": [
          [
            [15.969920947436, 45.7671383125547],
            [15.9766309535289, 45.7672538159672],
            [15.9766154064888, 45.7669284779522],
            [15.9699517271094, 45.7668327052498],
            [15.969920947436, 45.7671383125547]
          ]
        ]
      },
      "properties": {
        "FID": 4,
        "NAZIV": "Parkiralište u naselju Podbrežje",
        "Tip": "Lokacije za prihvat osoba",
        "G_cetvrt": "Novi Zagreb - zapad",
        "Povrsina_ha": 1.824267308788031,
        "seq_id": 32,
        "GlobalID": "4e5a124b-e89a-4e9e-a708-99c282a000d7"
      }
    },
    {
      "type": "Feature",
      "id": 5,
      "geometry": {
        "type": "Polygon",
        "coordinates": [
          [
            [16.0131519920623, 45.7714707469451],
            [16.013378358698, 45.7715449965008],
            [16.0135194504117, 45.7715933335935],
            [16.0136575011379, 45.7716599064384],
            [16.0138871115571, 45.7717269505845],
            [16.013950724757, 45.771740844208],
            [16.0140793924511, 45.77176894701],
            [16.0141887723561, 45.7718081341921],
            [16.0143139724285, 45.7718529897829],
            [16.0144039115305, 45.7718852106364],
            [16.0145599137803, 45.7719411015566],
            [16.0146869121917, 45.7720023884512],
            [16.0147476060579, 45.7720316792269],
            [16.01481962742, 45.7720801469479],
            [16.0148865099883, 45.7721251564634],
            [16.0149648633172, 45.7721707527165],
            [16.0151065259983, 45.7722370772943],
            [16.0152170680772, 45.7722745453011],
            [16.0153344192059, 45.7723143203812],
            [16.0154782556987, 45.7723555501628],
            [16.0155990065408, 45.7723901619313],
            [16.0157822793767, 45.7724470980848],
            [16.0160615483922, 45.7725286902248],
            [16.0162450119348, 45.7725882142704],
            [16.0163979669833, 45.7726129863437],
            [16.0165736244166, 45.7726274867607],
            [16.016685717248, 45.7726441610006],
            [16.0168340952297, 45.7727747945319],
            [16.0170898433984, 45.772980196301],
            [16.0175303898687, 45.7733340137517],
            [16.0180688768524, 45.7729752123702],
            [16.0182880954355, 45.7728152721745],
            [16.0184093024525, 45.7727268395833],
            [16.0185126927207, 45.7726465001769],
            [16.0188097419283, 45.7724477338823],
            [16.019138401686, 45.7722121603102],
            [16.0193718541751, 45.7720535907295],
            [16.019594048172, 45.7719026666313],
            [16.0202887721101, 45.7714185996149],
            [16.0205758681128, 45.7712163829501],
            [16.0209679449627, 45.7709451059882],
            [16.0218099947272, 45.7703415129331],
            [16.0221477717778, 45.7700993840327],
            [16.0221415638513, 45.769760054585],
            [16.0220023988007, 45.7696124214796],
            [16.0215668727635, 45.7692853598772],
            [16.0210821190366, 45.7689213234612],
            [16.020931254361, 45.7688449465786],
            [16.0200327749876, 45.7681779921182],
            [16.0190314253081, 45.7674346470275],
            [16.0179705817505, 45.7666947636577],
            [16.0179074761498, 45.7666953270226],
            [16.0178429253511, 45.7666959022499],
            [16.0177905431348, 45.766716506205],
            [16.0177302065226, 45.766763207714],
            [16.0176875384177, 45.7667962321017],
            [16.0175455487368, 45.76690613192],
            [16.0168704798081, 45.7673745336049],
            [16.0164086434877, 45.7677174307035],
            [16.0158302336027, 45.7681281998303],
            [16.0146104204967, 45.7689944445097],
            [16.0145148616268, 45.7690553537],
            [16.0144646164992, 45.7691407374321],
            [16.0143296659482, 45.7692446533485],
            [16.0141424061521, 45.7693888494514],
            [16.0138561417791, 45.7695955705601],
            [16.0135849000942, 45.769862536334],
            [16.0133378185107, 45.7701733086255],
            [16.0132190022724, 45.7703833308486],
            [16.013186830618, 45.7705090400221],
            [16.0131416129487, 45.7706194410581],
            [16.0131434871938, 45.7707227831496],
            [16.013204383209, 45.7707860782122],
            [16.0133027930543, 45.7708190504714],
            [16.0134183663279, 45.7707887830091],
            [16.0135224121823, 45.7707207025799],
            [16.0135854481681, 45.7707027904678],
            [16.0136661411926, 45.7707020740034],
            [16.0137107919387, 45.7707596218989],
            [16.0137135625378, 45.7709123327017],
            [16.0136607585084, 45.7710028799203],
            [16.0136211788764, 45.7710707490261],
            [16.0135561434226, 45.7711325521567],
            [16.0134906125621, 45.7711948264357],
            [16.0134244896375, 45.7712193010967],
            [16.0133141992804, 45.7712752273085],
            [16.0132583476076, 45.7713306690991],
            [16.0132002390738, 45.7713883516496],
            [16.0131519920623, 45.7714707469451]
          ]
        ]
      },
      "properties": {
        "FID": 5,
        "NAZIV": "Sajam automobila Jakuševec",
        "Tip": "Evakuacijska površina - šatorsko naselje",
        "G_cetvrt": "Novi Zagreb - istok",
        "Povrsina_ha": 28.662906809147422,
        "seq_id": 26,
        "GlobalID": "add84dd0-0c61-4293-854d-aefb4e154218"
      }
    },
    {
      "type": "Feature",
      "id": 6,
      "geometry": {
        "type": "Polygon",
        "coordinates": [
          [
            [15.9703665472074, 45.7713008245031],
            [15.9706566498313, 45.7713580034007],
            [15.9705690580875, 45.7715809336947],
            [15.972072077519, 45.7717394384026],
            [15.9720076982796, 45.7719186072171],
            [15.972429102019, 45.7719524589755],
            [15.9724893217791, 45.7716097560944],
            [15.9726032951838, 45.771610282247],
            [15.9725987244976, 45.771490617241],
            [15.9733225670781, 45.7714819915391],
            [15.9733974374762, 45.7713985858146],
            [15.9734253361048, 45.7708563257029],
            [15.9732851989904, 45.7706084142681],
            [15.973265182673, 45.7703131996369],
            [15.9725244472386, 45.7703018055809],
            [15.9711229459654, 45.7702594336554],
            [15.9710550913538, 45.7702032850453],
            [15.9702610693207, 45.7704030020325],
            [15.9703842109882, 45.7706388737469],
            [15.9704615007542, 45.7709024500632],
            [15.9703665472074, 45.7713008245031]
          ]
        ]
      },
      "properties": {
        "FID": 6,
        "NAZIV": "NK Hrvatski Dragovoljac",
        "Tip": "Evakuacijska površina - šatorsko naselje",
        "G_cetvrt": "Novi Zagreb - zapad",
        "Povrsina_ha": 3.4391687023627879,
        "seq_id": 33,
        "GlobalID": "7eda892c-e85a-433b-89c7-057f416efbd3"
      }
    },
    {
      "type": "Feature",
      "id": 7,
      "geometry": {
        "type": "Polygon",
        "coordinates": [
          [
            [15.9404079198612, 45.7820292668445],
            [15.9404843981667, 45.783042089951],
            [15.9402534267578, 45.7830517139522],
            [15.9402856524167, 45.7833818761016],
            [15.940577812585, 45.7839186374071],
            [15.9426492876612, 45.7839182927205],
            [15.9437071612667, 45.7838189166763],
            [15.9437713336651, 45.7819190578757],
            [15.9433794469879, 45.7814954284184],
            [15.9404079198612, 45.7820292668445]
          ]
        ]
      },
      "properties": {
        "FID": 7,
        "NAZIV": "Sportski park Mladost",
        "Tip": "Lokacije za prihvat osoba",
        "G_cetvrt": "Trešnjevka jug",
        "Povrsina_ha": 6.1773692280159249,
        "seq_id": 55,
        "GlobalID": "bc263b5f-5c16-4757-a475-ca254639d697"
      }
    },
    {
      "type": "Feature",
      "id": 8,
      "geometry": {
        "type": "Polygon",
        "coordinates": [
          [
            [15.9094376889222, 45.7823644341735],
            [15.9096798453274, 45.7823589100747],
            [15.9111155675397, 45.7812009256764],
            [15.911675987833, 45.7803975233067],
            [15.9094257098655, 45.7798303196572],
            [15.9090070345336, 45.7791302740168],
            [15.9083372010798, 45.7792894201548],
            [15.9079766419179, 45.7795043692941],
            [15.9078580099129, 45.7797341232556],
            [15.9078354167089, 45.7800389062471],
            [15.9079611764374, 45.7803273501316],
            [15.9086796792602, 45.7810221113045],
            [15.9087233070355, 45.7810223370882],
            [15.9090134635235, 45.7812713787403],
            [15.9093090632084, 45.7817065417598],
            [15.9094376889222, 45.7823644341735]
          ]
        ]
      },
      "properties": {
        "FID": 8,
        "NAZIV": "RSC Jarun",
        "Tip": "Evakuacijska površina - šatorsko naselje",
        "G_cetvrt": "Trešnjevka jug",
        "Povrsina_ha": 5.1147128572348661,
        "seq_id": 56,
        "GlobalID": "b7a04a87-b37f-4435-bd4c-ab4959ca6a31"
      }
    },
    {
      "type": "Feature",
      "id": 9,
      "geometry": {
        "type": "Polygon",
        "coordinates": [
          [
            [15.9689454218634, 45.7867936966621],
            [15.9718342510273, 45.7872082760321],
            [15.9727167197361, 45.7872957516039],
            [15.9728258860135, 45.78707258689],
            [15.9753588010948, 45.787332511754],
            [15.9753410845826, 45.7875301801315],
            [15.9765711524156, 45.7875938058177],
            [15.9792834703065, 45.7875756041761],
            [15.9793344396556, 45.7870066865789],
            [15.9795273621073, 45.7869979368062],
            [15.9795419983084, 45.7860952269062],
            [15.9793173649135, 45.7860332150563],
            [15.9792137319629, 45.7859204082075],
            [15.979018605247, 45.783760135946],
            [15.9787221282211, 45.7836596230894],
            [15.9769164345913, 45.7835026220653],
            [15.9761915892507, 45.7834471435358],
            [15.9761733792863, 45.7836695337067],
            [15.975357291319, 45.7836239648333],
            [15.9753624611175, 45.7834139375475],
            [15.9737202466065, 45.783480193882],
            [15.9687223273617, 45.7833261966976],
            [15.967463986586, 45.7832627262806],
            [15.9666227624131, 45.7832155885601],
            [15.96604789998, 45.7842724175769],
            [15.9664736224121, 45.7843825073144],
            [15.9661175756288, 45.7850325608458],
            [15.9665431562381, 45.7851474869672],
            [15.9664133837958, 45.7853774833816],
            [15.9662294492992, 45.7853543254199],
            [15.9659440141846, 45.7859988360649],
            [15.9672789613758, 45.7864123261646],
            [15.9676951012328, 45.7865655524879],
            [15.967773031309, 45.7864248998961],
            [15.9690051180348, 45.7866335579156],
            [15.9689454218634, 45.7867936966621]
          ],
          [
            [15.9676964294685, 45.7859376661788],
            [15.9679835237775, 45.7855377234445],
            [15.9702205634395, 45.785455637438],
            [15.9702620131024, 45.786261367727],
            [15.9699947552057, 45.7862224825076],
            [15.9699740763966, 45.7859292832772],
            [15.9698549622938, 45.7858480861474],
            [15.9693551830899, 45.7859619472926],
            [15.9693035290021, 45.7861488350343],
            [15.9676964294685, 45.7859376661788]
          ],
          [
            [15.9751094730539, 45.785030736615],
            [15.9746685607028, 45.7850378360003],
            [15.9746400929167, 45.7845263391931],
            [15.9751198398728, 45.7845188001632],
            [15.9751094730539, 45.785030736615]
          ],
          [
            [15.9735760420027, 45.7849217561413],
            [15.9735643042417, 45.7845287560443],
            [15.9738790960507, 45.7845192986374],
            [15.9738958976167, 45.784922464558],
            [15.9735760420027, 45.7849217561413]
          ]
        ]
      },
      "properties": {
        "FID": 9,
        "NAZIV": "Hipodrom",
        "Tip": "Evakuacijska površina - šatorsko naselje",
        "G_cetvrt": "Novi Zagreb - zapad",
        "Povrsina_ha": 39.765572605261454,
        "seq_id": 34,
        "GlobalID": "522357b2-6121-40cd-b2ae-3a43031a8440"
      }
    },
    {
      "type": "Feature",
      "id": 10,
      "geometry": {
        "type": "Polygon",
        "coordinates": [
          [
            [15.9898842430597, 45.7857585404106],
            [15.9902615030483, 45.7865498311667],
            [15.9926219690947, 45.7861091333125],
            [15.9914107538752, 45.7842815782177],
            [15.9911566389445, 45.7835862865753],
            [15.9922424847914, 45.7828275409811],
            [15.9896879294597, 45.7828074832075],
            [15.9891945390048, 45.7838725496883],
            [15.9896110377484, 45.7844384160669],
            [15.9898842430597, 45.7857585404106]
          ]
        ]
      },
      "properties": {
        "FID": 10,
        "NAZIV": "Bundek",
        "Tip": "Evakuacijska površina - šatorsko naselje",
        "G_cetvrt": "Novi Zagreb - istok",
        "Povrsina_ha": 6.6803949044229958,
        "seq_id": 27,
        "GlobalID": "e43bf39c-4aff-4732-9216-938b10326a20"
      }
    },
    {
      "type": "Feature",
      "id": 11,
      "geometry": {
        "type": "Polygon",
        "coordinates": [
          [
            [15.9413740520678, 45.7878306453561],
            [15.9416662306907, 45.7878282340633],
            [15.9416719995329, 45.7880098300076],
            [15.9431329003426, 45.7879952428613],
            [15.9445938005663, 45.787980637032],
            [15.9453207205222, 45.7879625065374],
            [15.9456006124748, 45.7878754282274],
            [15.9462410579381, 45.7873524862684],
            [15.9465687588536, 45.7871281920589],
            [15.946956033239, 45.7869035374183],
            [15.9469529012703, 45.7868441256129],
            [15.946748826666, 45.7867135719409],
            [15.9459371954708, 45.7857819729024],
            [15.9456530324022, 45.7855657602561],
            [15.9443147823836, 45.7855276468813],
            [15.942976535623, 45.7854895178462],
            [15.9429559181599, 45.784268760076],
            [15.9413526876186, 45.7843139180608],
            [15.9413598081728, 45.7854861613277],
            [15.9413669300876, 45.7866584034616],
            [15.9413740520678, 45.7878306453561]
          ]
        ]
      },
      "properties": {
        "FID": 11,
        "NAZIV": "Kineziološki Fakultet",
        "Tip": "Lokacije za prihvat osoba",
        "G_cetvrt": "Trešnjevka jug",
        "Povrsina_ha": 12.043969250578522,
        "seq_id": 57,
        "GlobalID": "a076cda2-8ea7-48fc-beac-2ce1cbae8ab8"
      }
    },
    {
      "type": "Feature",
      "id": 12,
      "geometry": {
        "type": "Polygon",
        "coordinates": [
          [
            [15.962254122747, 45.788616897752],
            [15.962366615746, 45.7883652351043],
            [15.9619653555208, 45.7882427534309],
            [15.9595511925142, 45.7875680881426],
            [15.9578013321241, 45.7870074785184],
            [15.9574322970781, 45.7875293323881],
            [15.9571563093274, 45.7879467411631],
            [15.9583461042222, 45.7880836135559],
            [15.9581845622542, 45.7893176074349],
            [15.9577549168218, 45.7893020407447],
            [15.9575663305895, 45.7894888355169],
            [15.9580495665494, 45.7905002807556],
            [15.9598175276936, 45.7902682852444],
            [15.9599212506052, 45.789405199178],
            [15.960132035189, 45.7894417742767],
            [15.9601281918519, 45.7892182461018],
            [15.960493464302, 45.7892215982868],
            [15.9604869252379, 45.7893685153478],
            [15.9620030089325, 45.7893621671258],
            [15.962254122747, 45.788616897752]
          ]
        ]
      },
      "properties": {
        "FID": 12,
        "NAZIV": "Boćarski dom",
        "Tip": "Lokacije za prihvat osoba",
        "G_cetvrt": "Trnje",
        "Povrsina_ha": 7.9924930879313383,
        "seq_id": 67,
        "GlobalID": "00817a38-b2d1-4aa1-a6c4-77ed28305b5d"
      }
    },
    {
      "type": "Feature",
      "id": 13,
      "geometry": {
        "type": "Polygon",
        "coordinates": [
          [
            [16.0003357718493, 45.7900474263652],
            [16.0014436268365, 45.7900671781475],
            [16.0018838208078, 45.7900837125835],
            [16.0020298385535, 45.7901211679208],
            [16.0021162874282, 45.7901592894054],
            [16.002191533758, 45.7902184775875],
            [16.0022409854771, 45.7902712808543],
            [16.0022699488857, 45.7903420349091],
            [16.0022966490688, 45.7904082594096],
            [16.0023417159024, 45.7904692047022],
            [16.0024184287032, 45.7905071980683],
            [16.0025040471786, 45.7905177476162],
            [16.0025778201564, 45.7905042335103],
            [16.0026601038059, 45.7904599392055],
            [16.0028941142316, 45.790116772053],
            [16.0029797508961, 45.7898854374896],
            [16.003132022736, 45.7896918287647],
            [16.0032819777994, 45.7892852868162],
            [16.0033886880097, 45.7888071927568],
            [16.0034142854043, 45.7882330722508],
            [16.0032949030163, 45.7875295126019],
            [16.0029232470805, 45.7866932616975],
            [16.0026765708825, 45.7863116011588],
            [16.0000069548934, 45.7872984867101],
            [16.0001101787662, 45.7879269170191],
            [16.0003033049456, 45.7882353373359],
            [16.0003357718493, 45.7900474263652]
          ]
        ]
      },
      "properties": {
        "FID": 13,
        "NAZIV": "Nogometno igralište Savica",
        "Tip": "Evakuacijska površina - šatorsko naselje",
        "G_cetvrt": "Trešnjevka sjever",
        "Povrsina_ha": 8.8487107554637223,
        "seq_id": 61,
        "GlobalID": "4c78f8b5-be4a-4e3b-883a-f50580d5b2ea"
      }
    },
    {
      "type": "Feature",
      "id": 14,
      "geometry": {
        "type": "Polygon",
        "coordinates": [
          [
            [15.9055127496637, 45.796308453414],
            [15.9080915321777, 45.7960982492711],
            [15.908247651588, 45.7959906493838],
            [15.9082491575622, 45.7958483712338],
            [15.9075522969227, 45.7948826356436],
            [15.90727084147, 45.7949353797298],
            [15.9071300857718, 45.7945077915084],
            [15.9044365903555, 45.7945818656049],
            [15.9044595121737, 45.7951579044749],
            [15.9053990121874, 45.7951627975475],
            [15.9055127496637, 45.796308453414]
          ]
        ]
      },
      "properties": {
        "FID": 14,
        "NAZIV": "Nogometno igralište NK Prečko",
        "Tip": "Evakuacijska površina - šatorsko naselje",
        "G_cetvrt": "Trešnjevka jug",
        "Povrsina_ha": 3.9183984305577853,
        "seq_id": 58,
        "GlobalID": "0b740063-1d46-40fb-8676-f4020c5db2ab"
      }
    },
    {
      "type": "Feature",
      "id": 15,
      "geometry": {
        "type": "Polygon",
        "coordinates": [
          [
            [15.8967296731491, 45.7924594485117],
            [15.8973517273385, 45.7934080532018],
            [15.8983157238546, 45.7931139264705],
            [15.8976009130665, 45.7921431564319],
            [15.8967296731491, 45.7924594485117]
          ]
        ]
      },
      "properties": {
        "FID": 15,
        "NAZIV": "Dvorište OŠ Nikole Tesle",
        "Tip": "Evakuacijska površina - šatorsko naselje",
        "G_cetvrt": "Trešnjevka jug",
        "Povrsina_ha": 0.93719847642715648,
        "seq_id": 59,
        "GlobalID": "a8b29aec-c0b9-44df-9f7f-0f52b54d8e75"
      }
    },
    {
      "type": "Feature",
      "id": 16,
      "geometry": {
        "type": "Polygon",
        "coordinates": [
          [
            [15.8730181969423, 45.7988127983619],
            [15.8805610045118, 45.7986778444136],
            [15.8809278842627, 45.7986157978412],
            [15.882038725709, 45.7985417670324],
            [15.8825116832117, 45.7982001370371],
            [15.8826683932861, 45.7974805904642],
            [15.8798068531141, 45.7975451379446],
            [15.8758122201708, 45.7976274412813],
            [15.8730667977532, 45.7975403713109],
            [15.8728015523775, 45.7977230160283],
            [15.8730181969423, 45.7988127983619]
          ]
        ]
      },
      "properties": {
        "FID": 16,
        "NAZIV": "Robni Terminali Jankomir",
        "Tip": "Evakuacijska površina - šatorsko naselje",
        "G_cetvrt": "Stenjevec",
        "Povrsina_ha": 9.5015966494380066,
        "seq_id": 53,
        "GlobalID": "63b4f0a7-5d1e-4b10-945f-3ccbf1d112d6"
      }
    },
    {
      "type": "Feature",
      "id": 17,
      "geometry": {
        "type": "Polygon",
        "coordinates": [
          [
            [15.9942380800156, 45.7997813186337],
            [15.994699937171, 45.7998036966016],
            [15.9948096028756, 45.7981113643978],
            [15.9952349804046, 45.7981570357282],
            [15.9952924266255, 45.7974147263637],
            [15.9945373236397, 45.7973800700527],
            [15.9945429037019, 45.7976932413139],
            [15.9936220102617, 45.797618891386],
            [15.9935227503472, 45.7979988551498],
            [15.9928846868803, 45.7979302822202],
            [15.9927569066644, 45.7995202936873],
            [15.9942475880299, 45.7996493712956],
            [15.9942380800156, 45.7997813186337]
          ]
        ]
      },
      "properties": {
        "FID": 17,
        "NAZIV": "ŠRC Trnje",
        "Tip": "Lokacije za prihvat osoba",
        "G_cetvrt": "Trešnjevka sjever",
        "Povrsina_ha": 3.4920656500479503,
        "seq_id": 62,
        "GlobalID": "b68db4b5-9909-4a3b-bf8f-ab11f537d8eb"
      }
    },
    {
      "type": "Feature",
      "id": 18,
      "geometry": {
        "type": "Polygon",
        "coordinates": [
          [
            [15.9246350601546, 45.8043191774671],
            [15.9254667775339, 45.8023700677602],
            [15.9245275080861, 45.8023734615749],
            [15.9245290576097, 45.8024669942652],
            [15.9241152045591, 45.8024644358212],
            [15.9241190059903, 45.8023271009889],
            [15.9238981995185, 45.8023234378505],
            [15.9238524723579, 45.8022579261166],
            [15.9237000702582, 45.8022536249253],
            [15.9228948572691, 45.8023425106484],
            [15.9229078061482, 45.8024659579976],
            [15.922729591061, 45.8024959378648],
            [15.9226926612381, 45.8023779543703],
            [15.9223193835574, 45.8024264356497],
            [15.9222960790268, 45.8033412528037],
            [15.9246350601546, 45.8043191774671]
          ]
        ]
      },
      "properties": {
        "FID": 18,
        "NAZIV": "NK Rudeš",
        "Tip": "Lokacije za prihvat osoba",
        "G_cetvrt": "Trešnjevka sjever",
        "Povrsina_ha": 3.65258078144545,
        "seq_id": 63,
        "GlobalID": "e49dd57c-cbb8-4a2d-a539-2c9c687eb07c"
      }
    },
    {
      "type": "Feature",
      "id": 19,
      "geometry": {
        "type": "Polygon",
        "coordinates": [
          [
            [15.9431290509797, 45.8051133373912],
            [15.9431236375094, 45.8053229914501],
            [15.9430809394276, 45.8056623907605],
            [15.9430721403508, 45.8066328986503],
            [15.94308779364, 45.8066834454116],
            [15.9431599650721, 45.8067238524845],
            [15.943270574726, 45.8067412851569],
            [15.9433119819793, 45.8067409425302],
            [15.9434740123704, 45.8066740707831],
            [15.9435363394288, 45.8066082294316],
            [15.9437016327138, 45.8063128952113],
            [15.9450165239206, 45.8066683024388],
            [15.9456967684084, 45.8058795616368],
            [15.9466905538412, 45.8059607270575],
            [15.9474485213465, 45.8059523971813],
            [15.9474549086066, 45.8059030067622],
            [15.9480515818548, 45.8058694875966],
            [15.9480651194587, 45.8058104444773],
            [15.9481143798609, 45.8057998749691],
            [15.9486677939635, 45.8057584593701],
            [15.9487048603871, 45.8060085800153],
            [15.9507622803424, 45.8060169623902],
            [15.9506711661111, 45.8045901168808],
            [15.9498568307846, 45.8046485223571],
            [15.9492990171111, 45.8046866625533],
            [15.9487480715743, 45.804728060732],
            [15.9481653090597, 45.8047930275238],
            [15.9459360799214, 45.8049427260939],
            [15.9458971284603, 45.8051063442332],
            [15.945114929741, 45.8050362656582],
            [15.9451309358274, 45.8049839050556],
            [15.9453647150467, 45.8048182421481],
            [15.9453482231263, 45.8047585739747],
            [15.9450281373844, 45.8048852128155],
            [15.9447685393188, 45.8049364250427],
            [15.9446939948292, 45.8049481218472],
            [15.9442708659609, 45.8049721992164],
            [15.9440592108877, 45.8049833771169],
            [15.9438382747532, 45.8050091428381],
            [15.9435487743244, 45.8050282981588],
            [15.9433349178664, 45.8050425493984],
            [15.943203277188, 45.8050590014063],
            [15.9431538360506, 45.8050901363629],
            [15.9431290509797, 45.8051133373912]
          ]
        ]
      },
      "properties": {
        "FID": 19,
        "NAZIV": "Park Ciglenica",
        "Tip": "Evakuacijska površina - šatorsko naselje",
        "G_cetvrt": "Trešnjevka sjever",
        "Povrsina_ha": 8.3518047878472874,
        "seq_id": 64,
        "GlobalID": "eb358802-509a-4cbc-b5ac-36d486dc2990"
      }
    },
    {
      "type": "Feature",
      "id": 20,
      "geometry": {
        "type": "Polygon",
        "coordinates": [
          [
            [16.0171604520942, 45.8066021114202],
            [16.0173109767006, 45.8061839608076],
            [16.0174642767476, 45.8052460545151],
            [16.0157866313612, 45.805085039947],
            [16.0157674727131, 45.8050834722912],
            [16.0156121252698, 45.8060121132588],
            [16.0157975436409, 45.8060549178324],
            [16.0157511585637, 45.8063043849312],
            [16.0160639365119, 45.8063132080959],
            [16.0160465552042, 45.8064485096694],
            [16.0171604520942, 45.8066021114202]
          ]
        ]
      },
      "properties": {
        "FID": 20,
        "NAZIV": "NK HAŠK",
        "Tip": "Evakuacijska površina - šatorsko naselje",
        "G_cetvrt": "Peščenica - Žitnjak",
        "Povrsina_ha": 1.8798813921639594,
        "seq_id": 37,
        "GlobalID": "78467c94-a259-4c32-a906-5674336b62f7"
      }
    },
    {
      "type": "Feature",
      "id": 21,
      "geometry": {
        "type": "Polygon",
        "coordinates": [
          [
            [15.9792502626316, 45.8055112545299],
            [15.9782371536267, 45.8054571133044],
            [15.9781107998111, 45.8074813220228],
            [15.9791195851036, 45.8075070218792],
            [15.9792502626316, 45.8055112545299]
          ]
        ]
      },
      "properties": {
        "FID": 21,
        "NAZIV": "Trg Kralja Tomislava",
        "Tip": "Lokacije za prihvat osoba",
        "G_cetvrt": "Donji Grad",
        "Povrsina_ha": 1.7597558603989314,
        "seq_id": 11,
        "GlobalID": "60cda79a-0ecc-4cbd-a804-1a9ec7e6c456"
      }
    },
    {
      "type": "Feature",
      "id": 22,
      "geometry": {
        "type": "Polygon",
        "coordinates": [
          [
            [15.8841240359257, 45.811638133402],
            [15.8841919346308, 45.811657466159],
            [15.8848753051905, 45.8117106854414],
            [15.8849320970365, 45.8116255501818],
            [15.8847702190551, 45.8107922354047],
            [15.8847294365578, 45.8103745735564],
            [15.8847463015121, 45.8101110169995],
            [15.882498636849, 45.8100744794465],
            [15.8830847077709, 45.8109192431998],
            [15.8841535042633, 45.8109440809969],
            [15.8841414192863, 45.8110508171095],
            [15.8841240359257, 45.811638133402]
          ]
        ]
      },
      "properties": {
        "FID": 22,
        "NAZIV": "Zelena površina sjevernije od Nogometnog centra Stenjevec",
        "Tip": "Lokacije za prihvat osoba",
        "G_cetvrt": "Stenjevec",
        "Povrsina_ha": 1.8875010495640869,
        "seq_id": 54,
        "GlobalID": "96b06df4-28bd-4a64-bc2e-f82c158f8c6d"
      }
    },
    {
      "type": "Feature",
      "id": 23,
      "geometry": {
        "type": "Polygon",
        "coordinates": [
          [
            [15.9564187459927, 45.8130045751684],
            [15.956569871097, 45.8130059859733],
            [15.9567371986311, 45.8130498944545],
            [15.9570293216215, 45.813046051604],
            [15.9570405170441, 45.8130088937796],
            [15.9570182914728, 45.8129735170954],
            [15.9568053104915, 45.8128614556682],
            [15.9567996172665, 45.8127942939901],
            [15.9567355552345, 45.8120385915794],
            [15.9566709141463, 45.8112760487344],
            [15.9565982615416, 45.8106407608132],
            [15.9565436526885, 45.8101632504649],
            [15.9554012288808, 45.810221584026],
            [15.9554390879961, 45.8106193777943],
            [15.9554605954353, 45.8108453604436],
            [15.9554951708687, 45.8112086457452],
            [15.9555349169039, 45.8115177708784],
            [15.9555963495147, 45.8119955453581],
            [15.9556264944366, 45.812108089603],
            [15.955495230797, 45.8121102607067],
            [15.9551647164698, 45.8120873681181],
            [15.9552214626402, 45.8125212140016],
            [15.9552462488348, 45.8128790007398],
            [15.9553456241382, 45.8128749548137],
            [15.955703796659, 45.8129542221239],
            [15.9558883536637, 45.8129677801537],
            [15.9560047465941, 45.8129874784026],
            [15.9563212368355, 45.8130245671779],
            [15.9564187459927, 45.8130045751684]
          ]
        ]
      },
      "properties": {
        "FID": 23,
        "NAZIV": "Trg dr. Franje Tuđmana",
        "Tip": "Evakuacijska površina - šatorsko naselje",
        "G_cetvrt": "Črnomerec",
        "Povrsina_ha": 3.1046276012514475,
        "seq_id": 4,
        "GlobalID": "4d568363-ae5f-4660-aa18-024c35d10d43"
      }
    },
    {
      "type": "Feature",
      "id": 24,
      "geometry": {
        "type": "MultiPolygon",
        "coordinates": [
          [
            [
              [15.8973201690016, 45.8129706078209],
              [15.896408323208, 45.8129227266974],
              [15.896314616851, 45.8138615009282],
              [15.8967350262448, 45.8138818648415],
              [15.8966695520012, 45.8147454205284],
              [15.897098508245, 45.8147476847617],
              [15.8973201690016, 45.8129706078209]
            ]
          ],
          [
            [
              [15.8985698171813, 45.8126187490858],
              [15.8984856401607, 45.8125591579202],
              [15.897784196246, 45.8126083575112],
              [15.8976724770592, 45.8139301662613],
              [15.8976291096984, 45.8147976829471],
              [15.8976194742778, 45.8149854148726],
              [15.8982682635447, 45.8149721728645],
              [15.8983206937838, 45.8149253087078],
              [15.8983693235086, 45.8139494247665],
              [15.8984053501813, 45.8135888838633],
              [15.8985698171813, 45.8126187490858]
            ]
          ]
        ]
      },
      "properties": {
        "FID": 24,
        "NAZIV": "Igralište NK Vrapče",
        "Tip": "Evakuacijska površina - šatorsko naselje",
        "G_cetvrt": "Podsused-Vrapče",
        "Povrsina_ha": 2.5495735166685005,
        "seq_id": 47,
        "GlobalID": "43e50544-8146-4dd6-a273-2feef9f66d36"
      }
    },
    {
      "type": "Feature",
      "id": 25,
      "geometry": {
        "type": "Polygon",
        "coordinates": [
          [
            [15.8786871055845, 45.8142525102292],
            [15.8788936693839, 45.8152219595175],
            [15.8795018356943, 45.8151545993444],
            [15.879587742492, 45.8155119929357],
            [15.8800740226642, 45.8154528227131],
            [15.8800498492498, 45.8150741810706],
            [15.880562369323, 45.8150253170208],
            [15.8804208835407, 45.81440501125],
            [15.8798699563229, 45.8144887735329],
            [15.8796686605876, 45.8135198745733],
            [15.8785523375464, 45.813579675241],
            [15.8784702903645, 45.8136357846974],
            [15.8785558104034, 45.814251932073],
            [15.8786871055845, 45.8142525102292]
          ]
        ]
      },
      "properties": {
        "FID": 25,
        "NAZIV": "NK Ponikve",
        "Tip": "Lokacije za prihvat osoba",
        "G_cetvrt": "Podsused-Vrapče",
        "Povrsina_ha": 2.101185669111524,
        "seq_id": 48,
        "GlobalID": "c900277b-0811-4d24-b3dc-b8bb32c19497"
      }
    },
    {
      "type": "Feature",
      "id": 26,
      "geometry": {
        "type": "Polygon",
        "coordinates": [
          [
            [16.0668314592369, 45.8171628652762],
            [16.0680760448751, 45.8172793401523],
            [16.068173258077, 45.8167876579166],
            [16.0669224888972, 45.8166668065468],
            [16.0668314592369, 45.8171628652762]
          ]
        ]
      },
      "properties": {
        "FID": 26,
        "NAZIV": "Igralište NK Čulinec",
        "Tip": "Evakuacijska površina - šatorsko naselje",
        "G_cetvrt": "Donja Dubrava",
        "Povrsina_ha": 0.54183351093680565,
        "seq_id": 7,
        "GlobalID": "48c178c8-58d2-4208-82ee-8f85a055a126"
      }
    },
    {
      "type": "Feature",
      "id": 27,
      "geometry": {
        "type": "Polygon",
        "coordinates": [
          [
            [16.0447559544361, 45.8327885750052],
            [16.0448330880787, 45.8328236367434],
            [16.0449945153052, 45.8328430232305],
            [16.0452295693877, 45.8328594992903],
            [16.0460059232362, 45.8329366465949],
            [16.0475181676227, 45.8331660938991],
            [16.0486150440447, 45.8334438105046],
            [16.0496688040901, 45.8337126474604],
            [16.0502063596966, 45.832614320601],
            [16.0497931029937, 45.8325266505117],
            [16.050057626624, 45.8321643223689],
            [16.0503685658428, 45.8322380695603],
            [16.0504042875825, 45.8321934778758],
            [16.0497936327023, 45.831994806416],
            [16.0496712429121, 45.8321477179226],
            [16.0496165059731, 45.8322245990377],
            [16.0493751739809, 45.8321611264172],
            [16.0492761321093, 45.8323213773941],
            [16.0489481089016, 45.8322237576033],
            [16.0487399991828, 45.8325424339418],
            [16.0484975616677, 45.8324702982096],
            [16.0486577224559, 45.8322334831274],
            [16.0482747130048, 45.8321039967174],
            [16.0480897840461, 45.8323549975067],
            [16.0476681190014, 45.8322105150129],
            [16.0477278069155, 45.8321127675617],
            [16.0470800358632, 45.8319130672776],
            [16.0474654959237, 45.831295140941],
            [16.0459795635113, 45.8307708537094],
            [16.045910457754, 45.8308682182236],
            [16.0454639818883, 45.8315043756862],
            [16.0448211815456, 45.8324986889412],
            [16.0447276871619, 45.8326156232012],
            [16.044707427413, 45.8326990557398],
            [16.0447559544361, 45.8327885750052]
          ]
        ]
      },
      "properties": {
        "FID": 27,
        "NAZIV": "Igralište OŠ dr. Ante Starčevića (Ulica Sv. Leopolda Mandića)",
        "Tip": "Lokacije za prihvat osoba",
        "G_cetvrt": "Gornja Dubrava",
        "Povrsina_ha": 6.4077621414003261,
        "seq_id": 14,
        "GlobalID": "e3e1d153-7341-4bda-821b-8ad4c6455057"
      }
    },
    {
      "type": "Feature",
      "id": 28,
      "geometry": {
        "type": "Polygon",
        "coordinates": [
          [
            [15.971369419546, 45.8355487214698],
            [15.9716566700667, 45.8358049267808],
            [15.9719582325249, 45.8358862411558],
            [15.9721736437548, 45.8360250700746],
            [15.9722686086203, 45.836144028337],
            [15.9723959233441, 45.8364403021136],
            [15.9724928667202, 45.8365415416278],
            [15.9726444329754, 45.8366021079618],
            [15.9727626325581, 45.8366132646617],
            [15.9729201635157, 45.8365658202093],
            [15.9729911827261, 45.8365107305406],
            [15.9731403013818, 45.836325052531],
            [15.9740122186706, 45.8352257084006],
            [15.9746727332724, 45.8348998210404],
            [15.9747603314871, 45.8348182554282],
            [15.974815058506, 45.8347204099031],
            [15.9749830681826, 45.8340375382986],
            [15.9748753636009, 45.8339572219436],
            [15.9747926122358, 45.8339741769962],
            [15.9747164269756, 45.8341421742152],
            [15.9744858001991, 45.8342854988302],
            [15.9744944828328, 45.8344462973391],
            [15.9743057647367, 45.8346282318201],
            [15.9742228313405, 45.8347704618059],
            [15.9738638935902, 45.8349542179584],
            [15.9736123728252, 45.8350287625925],
            [15.9734495941282, 45.8349635452219],
            [15.9731969605117, 45.8349743893685],
            [15.9731079164036, 45.8350967760544],
            [15.9732046392104, 45.8352538883258],
            [15.9730875222269, 45.8353188585346],
            [15.9729372215315, 45.8353304465947],
            [15.97190415034, 45.8351115424818],
            [15.9714560521774, 45.8350866626893],
            [15.971369419546, 45.8355487214698]
          ]
        ]
      },
      "properties": {
        "FID": 28,
        "NAZIV": "Cmrok",
        "Tip": "Lokacije za prihvat osoba",
        "G_cetvrt": "Medveščak",
        "Povrsina_ha": 2.5034430980577205,
        "seq_id": 24,
        "GlobalID": "15588c53-7a7a-402f-bd8d-0d62a4ee417d"
      }
    },
    {
      "type": "Feature",
      "id": 29,
      "geometry": {
        "type": "Polygon",
        "coordinates": [
          [
            [16.0309938265424, 45.829622791239],
            [16.0304924504612, 45.8306491288783],
            [16.0295500162141, 45.832516731471],
            [16.02921575201, 45.8336448856898],
            [16.0323459330281, 45.8344218335843],
            [16.0322173324029, 45.8355895962521],
            [16.0322091673546, 45.8365640600549],
            [16.0324018148838, 45.837207130223],
            [16.0326714590858, 45.8371694748609],
            [16.032733490594, 45.8354366750415],
            [16.0328389191926, 45.8341376607261],
            [16.0329409627538, 45.833361179876],
            [16.03379997985, 45.8307716382457],
            [16.0333547999001, 45.8306635123965],
            [16.0333202849481, 45.8303535163481],
            [16.0328788391927, 45.8299933811171],
            [16.0309938265424, 45.829622791239]
          ]
        ]
      },
      "properties": {
        "FID": 29,
        "NAZIV": "Površina preko puta KB Dubrava",
        "Tip": "Lokacije za prihvat osoba",
        "G_cetvrt": "Gornja Dubrava",
        "Povrsina_ha": 13.4769144070183,
        "seq_id": 15,
        "GlobalID": "7d65ceb0-d693-4deb-a1ce-24af177d6f9e"
      }
    },
    {
      "type": "Feature",
      "id": 30,
      "geometry": {
        "type": "Polygon",
        "coordinates": [
          [
            [16.0205201763044, 45.8240038987008],
            [16.0195452004616, 45.82383153563],
            [16.0185975279006, 45.8236833172433],
            [16.0176778226967, 45.8234823255049],
            [16.017440586192, 45.8238803587146],
            [16.0179756024152, 45.8240364618036],
            [16.0184957489935, 45.8243223065706],
            [16.0196018766483, 45.8244375380327],
            [16.0205201763044, 45.8240038987008]
          ]
        ]
      },
      "properties": {
        "FID": 30,
        "NAZIV": "Park Maksimir Velika pozornica",
        "Tip": "Lokacije za prihvat osoba",
        "G_cetvrt": "Maksimir",
        "Povrsina_ha": 1.2637203412984028,
        "seq_id": 20,
        "GlobalID": "b70355f7-bfcd-45f6-a8ba-1734608ab42d"
      }
    },
    {
      "type": "Feature",
      "id": 31,
      "geometry": {
        "type": "Polygon",
        "coordinates": [
          [
            [16.0561833472411, 45.8398631774465],
            [16.0563082722846, 45.8394945388367],
            [16.0563240955299, 45.838974393547],
            [16.0563706347119, 45.8388800233437],
            [16.0563723572375, 45.8383673167023],
            [16.0563707012108, 45.8382429753895],
            [16.0563543236242, 45.8379577618102],
            [16.0563252910697, 45.8377193124949],
            [16.0563230053363, 45.8375987379462],
            [16.0563035776965, 45.8374482273753],
            [16.0562830360261, 45.8371649870143],
            [16.056242110003, 45.8368655981058],
            [16.0562213965559, 45.8368074271562],
            [16.0561433093359, 45.8364564681049],
            [16.056216446773, 45.8364476220024],
            [16.0561555362481, 45.8362269870022],
            [16.0549884419353, 45.8361998439671],
            [16.0542127234255, 45.8361817964231],
            [16.0541468537298, 45.8365589828703],
            [16.0539835705272, 45.8369119580915],
            [16.0538677267774, 45.8371623792634],
            [16.0536135563496, 45.8378392935419],
            [16.0533016329698, 45.8386699967897],
            [16.0532304507874, 45.8388595626273],
            [16.0530459105275, 45.8388227305352],
            [16.05281445341, 45.8393741011271],
            [16.0528281736341, 45.8394577030756],
            [16.0529526502073, 45.8395338337363],
            [16.0531660230678, 45.8396069943976],
            [16.0532549597397, 45.8396061733234],
            [16.0535076572961, 45.8393140686462],
            [16.0540126086104, 45.8394476269149],
            [16.0545464216773, 45.8395764015071],
            [16.0556908841385, 45.8398470991034],
            [16.0559129501923, 45.8398982471648],
            [16.0561833472411, 45.8398631774465]
          ]
        ]
      },
      "properties": {
        "FID": 31,
        "NAZIV": "Igrališta SRC Grana Klaka",
        "Tip": "Evakuacijska površina - šatorsko naselje",
        "G_cetvrt": "Gornja Dubrava",
        "Povrsina_ha": 8.1132522720509357,
        "seq_id": 16,
        "GlobalID": "4f8d3343-3551-43a0-8238-e7ef7e4f4a6f"
      }
    },
    {
      "type": "Feature",
      "id": 32,
      "geometry": {
        "type": "Polygon",
        "coordinates": [
          [
            [16.1057114556492, 45.8328235457237],
            [16.105839105796, 45.8329399854426],
            [16.1055796310166, 45.8332983128947],
            [16.1055236440642, 45.8336461175235],
            [16.1056476736713, 45.8342751857097],
            [16.105581891754, 45.8352515955604],
            [16.1059192508257, 45.8367532635243],
            [16.1069510764901, 45.8369476540947],
            [16.1069491006628, 45.8372282902384],
            [16.1091386899578, 45.8372208330362],
            [16.1086466574377, 45.8356250983002],
            [16.1069962940354, 45.8358476902109],
            [16.1060707840819, 45.8357621813749],
            [16.1060795421623, 45.8352795051814],
            [16.1066097599753, 45.8352439131342],
            [16.1066062533226, 45.8349819673799],
            [16.1081428664859, 45.8349460864029],
            [16.1073242504052, 45.8333641929087],
            [16.1071153295208, 45.8333859254439],
            [16.1071377495337, 45.8340034177248],
            [16.1069329941815, 45.8341935502782],
            [16.1064074541502, 45.8343264498676],
            [16.1060920500883, 45.8342654926925],
            [16.1057953476459, 45.8338304083775],
            [16.1056919366511, 45.8333136685279],
            [16.1062897470487, 45.8327993468244],
            [16.1071365223262, 45.8326563268675],
            [16.1067651383584, 45.8306643548894],
            [16.1060906808471, 45.8306657740162],
            [16.1058223359533, 45.8307658799392],
            [16.1054929167486, 45.8311763527925],
            [16.1050429747697, 45.8312197016465],
            [16.1051020193962, 45.8319533195855],
            [16.1048526419866, 45.8323977436036],
            [16.1049086367426, 45.8328058055089],
            [16.104832849516, 45.8329252840797],
            [16.1057114556492, 45.8328235457237]
          ]
        ]
      },
      "properties": {
        "FID": 32,
        "NAZIV": "Tereni sjeverno od OŠ Luka Sesvete",
        "Tip": "Evakuacijska površina - šatorsko naselje",
        "G_cetvrt": "Sesvete",
        "Povrsina_ha": 9.4000791259623355,
        "seq_id": 50,
        "GlobalID": "19393867-7d7b-4848-8148-f988fecc5b41"
      }
    },
    {
      "type": "Feature",
      "id": 33,
      "geometry": {
        "type": "Polygon",
        "coordinates": [
          [
            [16.0607915739454, 45.8480654329571],
            [16.0607775805105, 45.8481471142186],
            [16.060779256384, 45.8481617386352],
            [16.0607974908468, 45.8481654726658],
            [16.0607965209751, 45.8481879294751],
            [16.0609537568493, 45.8482274586131],
            [16.0611067267918, 45.8482631227509],
            [16.0613820293076, 45.8483396163736],
            [16.0615758269066, 45.8483914924324],
            [16.0617450507331, 45.8484372885173],
            [16.062090703633, 45.8485394764702],
            [16.0623676657969, 45.8486296157766],
            [16.062403967199, 45.8486283016439],
            [16.0626092590646, 45.8486966600114],
            [16.0629376748396, 45.8487963643809],
            [16.0631342697034, 45.8488482115997],
            [16.0633436045284, 45.8489087235449],
            [16.0634965028403, 45.8489404809199],
            [16.0636073080944, 45.8489628715988],
            [16.0637455677179, 45.8489596312251],
            [16.0638695041385, 45.8489379794202],
            [16.0640611499799, 45.8489078731632],
            [16.0641904130366, 45.8488725087513],
            [16.0643252449444, 45.8488361153722],
            [16.0644799314708, 45.8488151533106],
            [16.064531338194, 45.8488000339241],
            [16.0646965129341, 45.8487617510092],
            [16.06480794248, 45.8487579293481],
            [16.0652680941564, 45.8486646200338],
            [16.0656447406943, 45.8485776517094],
            [16.0658665859804, 45.8485171633625],
            [16.0657863625202, 45.8482786861601],
            [16.065752782799, 45.8481581199748],
            [16.0658444840385, 45.8481490701344],
            [16.0658677313812, 45.8482403403936],
            [16.0661134152986, 45.8482080047561],
            [16.066154405418, 45.8482048905612],
            [16.0661723911721, 45.8483276163036],
            [16.0662835321448, 45.8483129226551],
            [16.0663105076106, 45.8483945999237],
            [16.0668745732772, 45.8482458753646],
            [16.0673346194127, 45.8481068975206],
            [16.0676501752004, 45.8480279216151],
            [16.0680593690489, 45.8479133603602],
            [16.0684871767228, 45.847785442178],
            [16.0688101824273, 45.8477033230408],
            [16.0689525650356, 45.8476492601325],
            [16.0689632791241, 45.8476175217931],
            [16.0690909210351, 45.8475820521371],
            [16.0691709741491, 45.8476234851633],
            [16.0693139126737, 45.8475984178085],
            [16.0693090054138, 45.847342727796],
            [16.0695466858043, 45.8473378638627],
            [16.0695471107979, 45.8475566852121],
            [16.0696903532061, 45.8475474332266],
            [16.0697206782789, 45.8469644929655],
            [16.0700213110156, 45.846947666637],
            [16.0701087394468, 45.8469438907551],
            [16.0701415756325, 45.8475209960675],
            [16.0705250555698, 45.8475092669274],
            [16.0709377751502, 45.8475633552057],
            [16.0710802394251, 45.8476177928357],
            [16.071349744272, 45.8477142438996],
            [16.0715525848721, 45.8477827263776],
            [16.0718217101564, 45.847859384039],
            [16.0718357175414, 45.8477690688991],
            [16.0718397193453, 45.8476921915082],
            [16.0716161786981, 45.8476578014315],
            [16.0717606725095, 45.8468414981469],
            [16.0720601243219, 45.8468393159974],
            [16.0721083516672, 45.8464408890134],
            [16.0714164733672, 45.84634839088],
            [16.0716451632822, 45.8452240697316],
            [16.0723406039949, 45.8452902753856],
            [16.0723646484937, 45.8451870011448],
            [16.0741417678923, 45.8450342296102],
            [16.0741833376208, 45.8450313936288],
            [16.0741234436358, 45.8447109064879],
            [16.0743392546578, 45.8446983307559],
            [16.0743497193818, 45.8447638051423],
            [16.0749291535153, 45.8447249236143],
            [16.0749358142364, 45.8447840042868],
            [16.0752300422938, 45.8447709465349],
            [16.0752526608317, 45.8449893096831],
            [16.0755081620648, 45.8449614397829],
            [16.0755022449068, 45.8448989697011],
            [16.0756992947896, 45.8448839228622],
            [16.075698400819, 45.8448375821758],
            [16.0757715738327, 45.8447615759972],
            [16.0760425699465, 45.8448372337381],
            [16.0767398629944, 45.844203922093],
            [16.0773452151088, 45.8444154683085],
            [16.077531559265, 45.8441877574979],
            [16.0761365983497, 45.8436708081276],
            [16.0765389041488, 45.8432723179727],
            [16.074884682938, 45.8425821588303],
            [16.0762353809354, 45.8410107770182],
            [16.0764173709773, 45.8410665108677],
            [16.0772322382729, 45.840254505837],
            [16.0775715519597, 45.8403662037226],
            [16.0776137972114, 45.840380964389],
            [16.0777256822378, 45.8401704634644],
            [16.07873798002, 45.8401851711409],
            [16.0787046743483, 45.8397323413021],
            [16.0787002108373, 45.8395467934528],
            [16.0787027752976, 45.839394804002],
            [16.078694626731, 45.8392583045321],
            [16.0786343238098, 45.8389876456301],
            [16.0785414707537, 45.8387423019095],
            [16.0782080932937, 45.8382014016522],
            [16.0778670505852, 45.8376925891835],
            [16.0775485779183, 45.8372574124989],
            [16.0773394067988, 45.8370082940003],
            [16.0772094493044, 45.8368470475813],
            [16.0771073898339, 45.8366707688806],
            [16.0766920058329, 45.8363251264368],
            [16.0764037027795, 45.8364737580393],
            [16.0764483205751, 45.8365523852065],
            [16.0739759144218, 45.8374292710016],
            [16.0737406299721, 45.8370905175651],
            [16.0731047376345, 45.8373309152949],
            [16.0733709251089, 45.8376906893531],
            [16.0708557339128, 45.838545432423],
            [16.0705283612274, 45.8381755716955],
            [16.0699977472756, 45.8383403775144],
            [16.0695309034112, 45.8384750711847],
            [16.069723410973, 45.8389559164354],
            [16.0689772873818, 45.8392475248605],
            [16.0690091296618, 45.8392995601844],
            [16.068803312627, 45.8393661357067],
            [16.068739621966, 45.8393180579784],
            [16.0677850679289, 45.8396317615203],
            [16.0672133694571, 45.839823443061],
            [16.0666598897395, 45.8401119542924],
            [16.0667159243163, 45.8402128425343],
            [16.0656402337679, 45.8404771309115],
            [16.0657058455627, 45.8405837265272],
            [16.0656094176394, 45.840611340767],
            [16.0651071169813, 45.8407109876482],
            [16.0643990645371, 45.8408832314365],
            [16.0636364012302, 45.841009803989],
            [16.0626575896034, 45.8411828004435],
            [16.0626694605772, 45.841334135711],
            [16.0626095343972, 45.8415905310066],
            [16.0624294982889, 45.8415895879711],
            [16.0622445541814, 45.8419214429376],
            [16.0619170295328, 45.8418563691881],
            [16.0617152009563, 45.8421754382155],
            [16.0616185737807, 45.8423873118298],
            [16.0606655516322, 45.8422124772916],
            [16.060535257969, 45.8424523641749],
            [16.0604450567207, 45.842673036254],
            [16.0603891334841, 45.8428371839586],
            [16.0600388678131, 45.8439657821346],
            [16.0601236966926, 45.8440337270293],
            [16.0600268687176, 45.8443853583049],
            [16.0600082311, 45.8444940054372],
            [16.0599268768023, 45.8445706925515],
            [16.0597104026088, 45.8448908937061],
            [16.0596453276455, 45.8450072034942],
            [16.0593971816158, 45.8452951558821],
            [16.0590592244948, 45.8452151296394],
            [16.0589698532466, 45.8454148277571],
            [16.0588290421807, 45.8454085129319],
            [16.0573971835226, 45.845295632554],
            [16.0565460280008, 45.8453167941476],
            [16.0566222484553, 45.8458092640365],
            [16.0566367643046, 45.8461829048729],
            [16.0565895755147, 45.8464377176037],
            [16.0565332837873, 45.8466043606016],
            [16.0568122360409, 45.8468146214225],
            [16.0569778662862, 45.8469272964879],
            [16.0571437933679, 45.8470555424163],
            [16.0573242854027, 45.8471680793185],
            [16.0575193423345, 45.8472649062267],
            [16.0577367904755, 45.8473667170201],
            [16.0579835660337, 45.8474474904022],
            [16.0580687003019, 45.8474705537732],
            [16.0581581413338, 45.8474697245332],
            [16.0582423029502, 45.847460017287],
            [16.0582988273992, 45.8474755619105],
            [16.0582586863377, 45.8475152134137],
            [16.0587216523696, 45.8476247358299],
            [16.0590347510273, 45.8477093145169],
            [16.0592154870683, 45.8477569871526],
            [16.0594533147825, 45.8478179553677],
            [16.059536451313, 45.8476910231735],
            [16.0600047452624, 45.8478238996572],
            [16.0605081839201, 45.8479719412763],
            [16.0607312862756, 45.8480406936529],
            [16.0607915739454, 45.8480654329571]
          ]
        ]
      },
      "properties": {
        "FID": 33,
        "NAZIV": "Grad mladih",
        "Tip": "Lokacije za prihvat osoba",
        "G_cetvrt": "Gornja Dubrava",
        "Povrsina_ha": 120.73085354946652,
        "seq_id": 17,
        "GlobalID": "831561b9-51db-4495-9e8f-c7adf6c335e8"
      }
    },
    {
      "type": "Feature",
      "id": 34,
      "geometry": {
        "type": "Polygon",
        "coordinates": [
          [
            [15.9330859968548, 45.8153668089051],
            [15.933048932854, 45.8156642141288],
            [15.9333888990765, 45.8157135149503],
            [15.9341867848556, 45.8159317324618],
            [15.9350362267296, 45.8161025857889],
            [15.9349397485062, 45.8155426415448],
            [15.9342925356745, 45.8155751500522],
            [15.9335440325614, 45.8155238272875],
            [15.9330859968548, 45.8153668089051]
          ]
        ]
      },
      "properties": {
        "FID": 34,
        "NAZIV": "Parkiralište Super Konzum Črnomerec",
        "Tip": "Lokacije za prihvat osoba",
        "G_cetvrt": "Črnomerec",
        "Povrsina_ha": 0.58655072258934926,
        "seq_id": 5,
        "GlobalID": "822ddacb-cc2f-46f0-ab6e-5f681c89eb2b"
      }
    },
    {
      "type": "Feature",
      "id": 35,
      "geometry": {
        "type": "Polygon",
        "coordinates": [
          [
            [15.9444032579963, 45.8186530250357],
            [15.9446069005012, 45.8187182945734],
            [15.94473146423, 45.8174904530795],
            [15.9445278273179, 45.8174251846758],
            [15.9444300074813, 45.8180175053255],
            [15.9443855292383, 45.8183815383839],
            [15.9444032579963, 45.8186530250357]
          ]
        ]
      },
      "properties": {
        "FID": 35,
        "NAZIV": "Šestinski dol 23 - Livada preko puta",
        "Tip": "Lokacije za prihvat osoba",
        "G_cetvrt": "Črnomerec",
        "Povrsina_ha": 0.25097737817550492,
        "seq_id": 6,
        "GlobalID": "b768dbec-fabc-49c0-b108-2df45e597255"
      }
    },
    {
      "type": "Feature",
      "id": 36,
      "geometry": {
        "type": "Polygon",
        "coordinates": [
          [
            [15.9775525980786, 45.8113022786035],
            [15.9787665820506, 45.8114506664117],
            [15.9792445283382, 45.8094816144752],
            [15.9784179890944, 45.809406423149],
            [15.9778159906874, 45.8093465365001],
            [15.977592451256, 45.8103168457062],
            [15.9775525980786, 45.8113022786035]
          ]
        ]
      },
      "properties": {
        "FID": 36,
        "NAZIV": "Park Zrinjevac",
        "Tip": "Lokacije za prihvat osoba",
        "G_cetvrt": "Donji Grad",
        "Povrsina_ha": 2.3616478198914219,
        "seq_id": 12,
        "GlobalID": "b9679f12-03d6-4b23-8f8d-936a3993f983"
      }
    },
    {
      "type": "Feature",
      "id": 37,
      "geometry": {
        "type": "Polygon",
        "coordinates": [
          [
            [15.9646197698308, 45.8079136984562],
            [15.9647320081135, 45.8089903071509],
            [15.9659441872274, 45.808962649135],
            [15.9657445129322, 45.8077713587586],
            [15.9646197698308, 45.8079136984562]
          ]
        ]
      },
      "properties": {
        "FID": 37,
        "NAZIV": "Srednjoškolsko igralište Klaićeva",
        "Tip": "Lokacije za prihvat osoba",
        "G_cetvrt": "Donji Grad",
        "Povrsina_ha": 1.1559865772713844,
        "seq_id": 13,
        "GlobalID": "9dea7d7a-ef3f-43ec-971f-d89fb20e95b7"
      }
    },
    {
      "type": "Feature",
      "id": 38,
      "geometry": {
        "type": "Polygon",
        "coordinates": [
          [
            [16.0782179317633, 45.8238348589605],
            [16.0781041199507, 45.8242510626982],
            [16.0779640495278, 45.8247623970798],
            [16.0781935352758, 45.8248108588009],
            [16.0794887801238, 45.8246430319532],
            [16.079363644621, 45.8243033206683],
            [16.0786831200214, 45.8242353435973],
            [16.0787622925616, 45.8238963847822],
            [16.0782179317633, 45.8238348589605]
          ]
        ]
      },
      "properties": {
        "FID": 38,
        "NAZIV": "Parking ispred trgovačkog centra Interspar (Branimirova ulica)",
        "Tip": "Lokacije za prihvat osoba",
        "G_cetvrt": "Donja Dubrava",
        "Povrsina_ha": 0.76173791147984549,
        "seq_id": 8,
        "GlobalID": "faad527c-0f23-46cf-a8e5-934334e845f7"
      }
    },
    {
      "type": "Feature",
      "id": 39,
      "geometry": {
        "type": "Polygon",
        "coordinates": [
          [
            [16.0631928573816, 45.8211558208973],
            [16.0628597843535, 45.8219473235521],
            [16.0640332619288, 45.8221089333615],
            [16.063963988879, 45.8218229837646],
            [16.0638252192189, 45.821279652888],
            [16.0631928573816, 45.8211558208973]
          ]
        ]
      },
      "properties": {
        "FID": 39,
        "NAZIV": "Parking ispred trgovačkog centra Spar (Branimirova ulica)",
        "Tip": "Lokacije za prihvat osoba",
        "G_cetvrt": "Donja Dubrava",
        "Povrsina_ha": 0.64050072719470275,
        "seq_id": 9,
        "GlobalID": "230b9306-de14-49b7-9484-bf3692f52642"
      }
    },
    {
      "type": "Feature",
      "id": 40,
      "geometry": {
        "type": "Polygon",
        "coordinates": [
          [
            [16.0370423627112, 45.8178865163659],
            [16.0376340678731, 45.8179746176417],
            [16.037926263614, 45.8172258761984],
            [16.037283615434, 45.8171232859022],
            [16.0370423627112, 45.8178865163659]
          ]
        ]
      },
      "properties": {
        "FID": 40,
        "NAZIV": "Parking ispred trgovačkog centra Kaufland (Branimirova ulica)",
        "Tip": "Lokacije za prihvat osoba",
        "G_cetvrt": "Donja Dubrava",
        "Povrsina_ha": 0.42493122285659335,
        "seq_id": 10,
        "GlobalID": "dff1d5e2-6300-459f-bd42-fc12d6478924"
      }
    },
    {
      "type": "Feature",
      "id": 41,
      "geometry": {
        "type": "Polygon",
        "coordinates": [
          [
            [15.9692034625952, 45.8156804582787],
            [15.9693129300609, 45.8163428043408],
            [15.9697558380299, 45.816311531292],
            [15.9696466817559, 45.8156158569044],
            [15.9692034625952, 45.8156804582787]
          ]
        ]
      },
      "properties": {
        "FID": 41,
        "NAZIV": "Parking preko puta restorana \"Dubravkin put\"",
        "Tip": "Lokacije za prihvat osoba",
        "G_cetvrt": "Medveščak",
        "Povrsina_ha": 0.2643654013361813,
        "seq_id": 25,
        "GlobalID": "122fa583-f838-48d2-a305-b6f95499f191"
      }
    },
    {
      "type": "Feature",
      "id": 42,
      "geometry": {
        "type": "Polygon",
        "coordinates": [
          [
            [16.0141701890324, 45.8166970860241],
            [16.0141445628025, 45.8180777885945],
            [16.0153428450348, 45.8181019235108],
            [16.015423659371, 45.8166357484427],
            [16.0141701890324, 45.8166970860241]
          ]
        ]
      },
      "properties": {
        "FID": 42,
        "NAZIV": "Igrališta ŠRC Svetice",
        "Tip": "Evakuacijska površina - šatorsko naselje",
        "G_cetvrt": "Maksimir",
        "Povrsina_ha": 1.5062195607962821,
        "seq_id": 21,
        "GlobalID": "f00541d6-304f-40e4-9e68-36e0c03e969b"
      }
    },
    {
      "type": "Feature",
      "id": 43,
      "geometry": {
        "type": "Polygon",
        "coordinates": [
          [
            [16.0329026417643, 45.8231158205316],
            [16.0360432835394, 45.8237999760688],
            [16.0370465477103, 45.8210757533244],
            [16.0339046161052, 45.8205630313303],
            [16.0329026417643, 45.8231158205316]
          ]
        ]
      },
      "properties": {
        "FID": 43,
        "NAZIV": "Tenis centar Maksimir",
        "Tip": "Lokacije za prihvat osoba",
        "G_cetvrt": "Maksimir",
        "Povrsina_ha": 7.6759242753744754,
        "seq_id": 22,
        "GlobalID": "7aa219f9-c22b-4f9a-8a34-a56ce939c5c6"
      }
    },
    {
      "type": "Feature",
      "id": 44,
      "geometry": {
        "type": "Polygon",
        "coordinates": [
          [
            [15.9915996689915, 45.8525218752372],
            [15.9918871213667, 45.8526239121741],
            [15.9921895856589, 45.8522502122141],
            [15.991859396809, 45.8521498512518],
            [15.9915996689915, 45.8525218752372]
          ]
        ]
      },
      "properties": {
        "FID": 44,
        "NAZIV": "Igralište Remete ul. Vinec i Kratki Dol",
        "Tip": "Lokacije za prihvat osoba",
        "G_cetvrt": "Maksimir",
        "Povrsina_ha": 0.12394175513546982,
        "seq_id": 23,
        "GlobalID": "06b8c6f2-c2a4-4ecb-a6e0-356d1b7bdf65"
      }
    },
    {
      "type": "Feature",
      "id": 45,
      "geometry": {
        "type": "Polygon",
        "coordinates": [
          [
            [15.9924151606289, 45.7769148028312],
            [15.9932675967433, 45.7768803234928],
            [15.9932791543319, 45.7756043043882],
            [15.9924604709843, 45.7755349284791],
            [15.9924151606289, 45.7769148028312]
          ]
        ]
      },
      "properties": {
        "FID": 45,
        "NAZIV": "Igralište I. gimnazije",
        "Tip": "Lokacije za prihvat osoba",
        "G_cetvrt": "Novi Zagreb - istok",
        "Povrsina_ha": 0.9594432979222105,
        "seq_id": 28,
        "GlobalID": "f3383d5b-14ed-4407-acc4-4b752190518a"
      }
    },
    {
      "type": "Feature",
      "id": 46,
      "geometry": {
        "type": "Polygon",
        "coordinates": [
          [
            [15.9965360506585, 45.7701485199334],
            [15.9977290789495, 45.7701720736251],
            [15.9977675595038, 45.7695270723713],
            [15.9965810414897, 45.7695081232527],
            [15.9965360506585, 45.7701485199334]
          ]
        ]
      },
      "properties": {
        "FID": 46,
        "NAZIV": "Igralište OŠ Gustava Krkleca",
        "Tip": "Lokacije za prihvat osoba",
        "G_cetvrt": "Novi Zagreb - istok",
        "Povrsina_ha": 0.66174581466267657,
        "seq_id": 29,
        "GlobalID": "94a4b33e-0328-4c10-84c6-52227a4c823e"
      }
    },
    {
      "type": "Feature",
      "id": 47,
      "geometry": {
        "type": "Polygon",
        "coordinates": [
          [
            [15.9967931364323, 45.763749663035],
            [15.9968229547183, 45.7642164184974],
            [15.9972856725237, 45.7642041710021],
            [15.9972493893817, 45.7636992958676],
            [15.9967931364323, 45.763749663035]
          ]
        ]
      },
      "properties": {
        "FID": 47,
        "NAZIV": "Igralište OŠ Dugave",
        "Tip": "Lokacije za prihvat osoba",
        "G_cetvrt": "Novi Zagreb - istok",
        "Povrsina_ha": 0.19387081459266317,
        "seq_id": 30,
        "GlobalID": "539aa936-ad60-4829-a651-71a8ca8fbbb2"
      }
    },
    {
      "type": "Feature",
      "id": 48,
      "geometry": {
        "type": "Polygon",
        "coordinates": [
          [
            [15.9861572719171, 45.76683060685],
            [15.9869647579111, 45.7668758981763],
            [15.9870214539953, 45.7662571625833],
            [15.9861881387185, 45.7662474668514],
            [15.9861572719171, 45.76683060685]
          ]
        ]
      },
      "properties": {
        "FID": 48,
        "NAZIV": "Igralište OŠ Otok",
        "Tip": "Lokacije za prihvat osoba",
        "G_cetvrt": "Novi Zagreb - istok",
        "Povrsina_ha": 0.42722484842710889,
        "seq_id": 31,
        "GlobalID": "562b00e1-0be2-4ffe-acec-7316c30abc16"
      }
    },
    {
      "type": "Feature",
      "id": 49,
      "geometry": {
        "type": "Polygon",
        "coordinates": [
          [
            [15.9777551519144, 45.7832591866146],
            [15.979539935532, 45.7834339806575],
            [15.9796421640218, 45.7815893843612],
            [15.979524783759, 45.7795771370041],
            [15.9778578701804, 45.7795457236865],
            [15.9777551519144, 45.7832591866146]
          ]
        ]
      },
      "properties": {
        "FID": 49,
        "NAZIV": "Zagrebački velesajam - parkiralište istok",
        "Tip": "Lokacije za prihvat osoba",
        "G_cetvrt": "Novi Zagreb - zapad",
        "Povrsina_ha": 5.8319975208386774,
        "seq_id": 35,
        "GlobalID": "7f5463e0-09bf-491a-b5e7-73aaebe2205d"
      }
    },
    {
      "type": "Feature",
      "id": 50,
      "geometry": {
        "type": "Polygon",
        "coordinates": [
          [
            [15.9468039432019, 45.775228401186],
            [15.947944076496, 45.7757462012359],
            [15.9483242777429, 45.7754132765939],
            [15.9482667429754, 45.7753673500715],
            [15.948830588431, 45.7747867763294],
            [15.9474952245678, 45.7742223924126],
            [15.9469090767069, 45.7748586447301],
            [15.9471328612853, 45.7749510261317],
            [15.9468039432019, 45.775228401186]
          ]
        ]
      },
      "properties": {
        "FID": 50,
        "NAZIV": "Lanište - zelena površina uz Jadransku aveniju",
        "Tip": "Lokacije za prihvat osoba",
        "G_cetvrt": "Novi Zagreb - zapad",
        "Povrsina_ha": 1.449550739515413,
        "seq_id": 36,
        "GlobalID": "470c435b-6682-4c29-9d62-277870ae78b4"
      }
    },
    {
      "type": "Feature",
      "id": 51,
      "geometry": {
        "type": "Polygon",
        "coordinates": [
          [
            [16.0133285280732, 45.7946892403131],
            [16.0131352163706, 45.7957835478837],
            [16.0140332377402, 45.7958397463069],
            [16.0141993482834, 45.7947405607518],
            [16.0133285280732, 45.7946892403131]
          ]
        ]
      },
      "properties": {
        "FID": 51,
        "NAZIV": "Nogometno igralište NK ZET (Capraška ulica)",
        "Tip": "Lokacije za prihvat osoba",
        "G_cetvrt": "Peščenica - Žitnjak",
        "Povrsina_ha": 0.84642572827047335,
        "seq_id": 38,
        "GlobalID": "58d13ff5-4317-4a17-9de7-8c9a8b6665a0"
      }
    },
    {
      "type": "Feature",
      "id": 52,
      "geometry": {
        "type": "Polygon",
        "coordinates": [
          [
            [16.0135844981988, 45.8025604489764],
            [16.0145744269035, 45.802628937686],
            [16.0147571942024, 45.8015726762002],
            [16.0136649242041, 45.8015323211408],
            [16.0135844981988, 45.8025604489764]
          ]
        ]
      },
      "properties": {
        "FID": 52,
        "NAZIV": "Parkiralište Lidl (Vukovarska)",
        "Tip": "Lokacije za prihvat osoba",
        "G_cetvrt": "Peščenica - Žitnjak",
        "Povrsina_ha": 0.94355084181085624,
        "seq_id": 39,
        "GlobalID": "183e9c65-b8f3-41cd-91e6-9f7988190579"
      }
    },
    {
      "type": "Feature",
      "id": 53,
      "geometry": {
        "type": "Polygon",
        "coordinates": [
          [
            [16.0180914281016, 45.815512574936],
            [16.0191927741245, 45.8157171939811],
            [16.0195542159918, 45.8148616583032],
            [16.0189417362268, 45.8148209903012],
            [16.0187923488705, 45.8147727468295],
            [16.0187948913843, 45.8144775493303],
            [16.01925757063, 45.8145175879499],
            [16.0194106437052, 45.8141373182274],
            [16.0197506789398, 45.8141863623652],
            [16.0201642834165, 45.8135976835466],
            [16.019484547542, 45.8134615071041],
            [16.0182533797015, 45.814103876359],
            [16.0177065322816, 45.814349163231],
            [16.0183449284794, 45.8145423129309],
            [16.0180914281016, 45.815512574936]
          ]
        ]
      },
      "properties": {
        "FID": 53,
        "NAZIV": "Okretište tramvaja Borongaj",
        "Tip": "Lokacije za prihvat osoba",
        "G_cetvrt": "Peščenica - Žitnjak",
        "Povrsina_ha": 2.0643519323849353,
        "seq_id": 40,
        "GlobalID": "6d05d57b-c3cf-4576-9c59-fcfe34642640"
      }
    },
    {
      "type": "Feature",
      "id": 54,
      "geometry": {
        "type": "Polygon",
        "coordinates": [
          [
            [16.0444935914118, 45.8133258723036],
            [16.0445626919864, 45.8152902345876],
            [16.0464178687912, 45.8153333251554],
            [16.0463832297306, 45.8133095830193],
            [16.0444935914118, 45.8133258723036]
          ]
        ]
      },
      "properties": {
        "FID": 54,
        "NAZIV": "Znanstveno-učilišni kampus Borongaj",
        "Tip": "Evakuacijska površina - šatorsko naselje",
        "G_cetvrt": "Peščenica - Žitnjak",
        "Povrsina_ha": 3.2242374568440435,
        "seq_id": 41,
        "GlobalID": "dd6742be-8ba9-4d24-8cc7-669672c5ee82"
      }
    },
    {
      "type": "Feature",
      "id": 55,
      "geometry": {
        "type": "Polygon",
        "coordinates": [
          [
            [15.9509650432913, 45.8536628428543],
            [15.951327339854, 45.853785233952],
            [15.9516184514313, 45.8532913256146],
            [15.9511581598945, 45.8532002147265],
            [15.9509650432913, 45.8536628428543]
          ]
        ]
      },
      "properties": {
        "FID": 55,
        "NAZIV": "Igralište MNK Šestine",
        "Tip": "Lokacije za prihvat osoba",
        "G_cetvrt": "Podsljeme",
        "Povrsina_ha": 0.1920934033880406,
        "seq_id": 42,
        "GlobalID": "ef18d9f4-0615-4104-90bc-0e90cbb71582"
      }
    },
    {
      "type": "Feature",
      "id": 56,
      "geometry": {
        "type": "Polygon",
        "coordinates": [
          [
            [15.9834432699465, 45.861662998996],
            [15.9838439313011, 45.8618892101889],
            [15.9842711382084, 45.8620015583279],
            [15.9842943285953, 45.8616988998613],
            [15.9841325793195, 45.8615485693022],
            [15.9841793162457, 45.8614561705765],
            [15.9847036116723, 45.8615440222339],
            [15.9846997320313, 45.8614122137834],
            [15.9841808972665, 45.8612852055145],
            [15.9838761443022, 45.861162724317],
            [15.9836631541971, 45.8610406569892],
            [15.983483804749, 45.8611395797605],
            [15.983711956821, 45.8612759640609],
            [15.983516125509, 45.8615030420064],
            [15.9834432699465, 45.861662998996]
          ]
        ]
      },
      "properties": {
        "FID": 56,
        "NAZIV": "Parking žičara Sljeme",
        "Tip": "Lokacije za prihvat osoba",
        "G_cetvrt": "Podsljeme",
        "Povrsina_ha": 0.48253200434728277,
        "seq_id": 43,
        "GlobalID": "e5fd924a-9e2b-4a2c-8fdf-0ead289a3ec6"
      }
    },
    {
      "type": "Feature",
      "id": 57,
      "geometry": {
        "type": "Polygon",
        "coordinates": [
          [
            [15.9735219330707, 45.8429312492823],
            [15.9732339264029, 45.8431299003085],
            [15.9746201549132, 45.8435076718332],
            [15.9758982980797, 45.8437897024092],
            [15.9747979906288, 45.8419848411003],
            [15.9743354761346, 45.8419065317096],
            [15.9735219330707, 45.8429312492823]
          ]
        ]
      },
      "properties": {
        "FID": 57,
        "NAZIV": "Okretište tramvaja Mihaljevac",
        "Tip": "Lokacije za prihvat osoba",
        "G_cetvrt": "Podsljeme",
        "Povrsina_ha": 2.0258222772740115,
        "seq_id": 44,
        "GlobalID": "77aae463-cea5-4ed8-a590-7d3691e940a2"
      }
    },
    {
      "type": "Feature",
      "id": 58,
      "geometry": {
        "type": "Polygon",
        "coordinates": [
          [
            [16.0138840535187, 45.8738480034189],
            [16.0145713921173, 45.8741723178914],
            [16.0154313586176, 45.8732623798779],
            [16.0147695594553, 45.8729411545693],
            [16.0138840535187, 45.8738480034189]
          ]
        ]
      },
      "properties": {
        "FID": 58,
        "NAZIV": "NK Prigorje Markuševec",
        "Tip": "Evakuacijska površina - šatorsko naselje",
        "G_cetvrt": "Podsljeme",
        "Povrsina_ha": 0.77175697564659673,
        "seq_id": 45,
        "GlobalID": "7273e460-8f20-4fc6-88c7-41968ea8a4d8"
      }
    },
    {
      "type": "Feature",
      "id": 60,
      "geometry": {
        "type": "Polygon",
        "coordinates": [
          [
            [16.1105607540983, 45.8099783361064],
            [16.111421364806, 45.8099860053197],
            [16.1120852195028, 45.8100261747807],
            [16.113033075312, 45.8101573477422],
            [16.1136955912866, 45.8103918122342],
            [16.1142213651307, 45.8108011615066],
            [16.1144025404349, 45.8110624301354],
            [16.114461931106, 45.8112948531921],
            [16.1144397038531, 45.8115696529006],
            [16.1142956210115, 45.811825084443],
            [16.1146412134659, 45.8118309897286],
            [16.1145735869719, 45.8098450268137],
            [16.1144719691967, 45.8098399447713],
            [16.114482743494, 45.8102428148477],
            [16.1139677095111, 45.8102410759673],
            [16.1139633554931, 45.8098903589577],
            [16.1140175691186, 45.8098905421076],
            [16.1140045067484, 45.8098194096748],
            [16.1105615797939, 45.8098598584098],
            [16.1105607540983, 45.8099783361064]
          ]
        ]
      },
      "properties": {
        "FID": 60,
        "NAZIV": "Dječje igralište naselja Jelkovec",
        "Tip": "Lokacije za prihvat osoba",
        "G_cetvrt": "Sesvete",
        "Povrsina_ha": 1.3374523648592329,
        "seq_id": 51,
        "GlobalID": "4176bc55-3857-4f29-8eba-f0bd4e8f3b2b"
      }
    },
    {
      "type": "Feature",
      "id": 61,
      "geometry": {
        "type": "Polygon",
        "coordinates": [
          [
            [16.1039216829259, 45.8265654502334],
            [16.1043938639235, 45.8272098769868],
            [16.10637270078, 45.8266810520363],
            [16.1060880407406, 45.8260015699528],
            [16.1039216829259, 45.8265654502334]
          ]
        ]
      },
      "properties": {
        "FID": 61,
        "NAZIV": "Parkiralište kod željezničkog kolodvora Sesvete",
        "Tip": "Lokacije za prihvat osoba",
        "G_cetvrt": "Sesvete",
        "Povrsina_ha": 1.3632530540114309,
        "seq_id": 52,
        "GlobalID": "bf11c18e-e5b1-41a2-b4c7-3ccb4fa59e1f"
      }
    },
    {
      "type": "Feature",
      "id": 62,
      "geometry": {
        "type": "Polygon",
        "coordinates": [
          [
            [15.9519823601108, 45.8059170694847],
            [15.9518458990184, 45.8068151348774],
            [15.952398693086, 45.8068534966514],
            [15.9523873833806, 45.8071391276883],
            [15.952761587861, 45.8071647282336],
            [15.9524673486409, 45.8085322294038],
            [15.9535735530955, 45.8085494283876],
            [15.9538641024621, 45.807556868819],
            [15.953404969266, 45.8075130109853],
            [15.9534502550363, 45.8072334936448],
            [15.9530508108302, 45.8071780164848],
            [15.9529330688325, 45.807034609287],
            [15.9529947948449, 45.8068146887275],
            [15.9526889622161, 45.8067596584153],
            [15.9528153260397, 45.8060222418571],
            [15.9519823601108, 45.8059170694847]
          ]
        ]
      },
      "properties": {
        "FID": 62,
        "NAZIV": "Trg Krešimira Ćosića",
        "Tip": "Lokacije za prihvat osoba",
        "G_cetvrt": "Trešnjevka sjever",
        "Povrsina_ha": 2.0135298291566777,
        "seq_id": 65,
        "GlobalID": "137c6b79-b0dd-45a4-aeda-4ada6493d20c"
      }
    },
    {
      "type": "Feature",
      "id": 63,
      "geometry": {
        "type": "Polygon",
        "coordinates": [
          [
            [15.9604098411028, 45.8039038115088],
            [15.9601262128578, 45.8050749748061],
            [15.9601933706124, 45.8051705202476],
            [15.9603375174947, 45.805224767837],
            [15.9603797210993, 45.8052606773776],
            [15.9605073088781, 45.8052672320267],
            [15.9606688774834, 45.8052798981885],
            [15.960796465343, 45.805286452515],
            [15.9609413032607, 45.8052692803741],
            [15.9611120121397, 45.8052165189548],
            [15.9611720399328, 45.8051691884319],
            [15.9614465632977, 45.8040574975846],
            [15.9614132713819, 45.8039799671624],
            [15.9613627301435, 45.8039261631294],
            [15.961286833711, 45.8038543839691],
            [15.9612190445595, 45.8038243053646],
            [15.9611173329197, 45.8037821633274],
            [15.9609643920219, 45.8037576341906],
            [15.9608282415317, 45.8037569917975],
            [15.9606833500718, 45.8037801156998],
            [15.9605725558463, 45.8037974473458],
            [15.9604956826958, 45.8038268433644],
            [15.9604098411028, 45.8039038115088]
          ]
        ]
      },
      "properties": {
        "FID": 63,
        "NAZIV": "Stadion Kranjčevićeva",
        "Tip": "Lokacije za prihvat osoba",
        "G_cetvrt": "Trešnjevka sjever",
        "Povrsina_ha": 1.3146656373556771,
        "seq_id": 66,
        "GlobalID": "7b34b951-80ad-45a9-b6fc-17b8a1651b70"
      }
    },
    {
      "type": "Feature",
      "id": 64,
      "geometry": {
        "type": "Polygon",
        "coordinates": [
          [
            [15.9715065689153, 45.8149417140479],
            [15.9721354430864, 45.8149375288885],
            [15.9721223886541, 45.8148878233049],
            [15.9720006404781, 45.8148919882917],
            [15.9719610032413, 45.8144355380967],
            [15.9712925502344, 45.8143355192843],
            [15.971266872884, 45.8145481677428],
            [15.9715065689153, 45.8149417140479]
          ]
        ]
      },
      "properties": {
        "FID": 64,
        "NAZIV": "Park Grič",
        "Tip": "Lokacije za prihvat osoba",
        "G_cetvrt": "Gornji Grad-Medveščak",
        "Povrsina_ha": 0.30561982257313697,
        "seq_id": 18,
        "GlobalID": "cb083129-3a2b-4479-87db-61ae0ba04624"
      }
    },
    {
      "type": "Feature",
      "id": 65,
      "geometry": {
        "type": "Polygon",
        "coordinates": [
          [
            [15.9723672787221, 45.8148816534866],
            [15.9732566754646, 45.8148431509026],
            [15.973191216087, 45.8145891474888],
            [15.9729099358436, 45.814607216557],
            [15.9723609053098, 45.8145301219373],
            [15.9723672787221, 45.8148816534866]
          ]
        ]
      },
      "properties": {
        "FID": 65,
        "NAZIV": "Park Bele IV.",
        "Tip": "Lokacije za prihvat osoba",
        "G_cetvrt": "Gornji Grad-Medveščak",
        "Povrsina_ha": 0.2108896791189141,
        "seq_id": 19,
        "GlobalID": "689803f9-a124-4d99-9b11-05226386a082"
      }
    },
    {
      "type": "Feature",
      "id": 66,
      "geometry": {
        "type": "Polygon",
        "coordinates": [
          [
            [16.0128212316495, 45.8747488049928],
            [16.0133404314406, 45.8751299762962],
            [16.0136620695195, 45.8749444854915],
            [16.0131903987323, 45.8745600260644],
            [16.0128212316495, 45.8747488049928]
          ]
        ]
      },
      "properties": {
        "FID": 66,
        "NAZIV": "OŠ Markuševec",
        "Tip": "Lokacije za prihvat osoba",
        "G_cetvrt": "Podsljeme",
        "Povrsina_ha": 0.19407543869562857,
        "seq_id": 46,
        "GlobalID": "ab717a64-a0d6-4108-8a9b-cdb510119d05"
      }
    },
    {
      "type": "Feature",
      "id": 67,
      "geometry": {
        "type": "Polygon",
        "coordinates": [
          [
            [15.9054542856786, 45.7945194100884],
            [15.9071398430069, 45.7945010666571],
            [15.9072855548218, 45.794461169755],
            [15.9067331447725, 45.7935774839571],
            [15.905167947846, 45.7932102429017],
            [15.9050384346587, 45.7935483453537],
            [15.9054338755233, 45.7937062407879],
            [15.9054542856786, 45.7945194100884]
          ]
        ]
      },
      "properties": {
        "FID": 67,
        "NAZIV": "OŠ Prečko",
        "Tip": "Lokacije za prihvat osoba",
        "G_cetvrt": "Trešnjevka jug",
        "Povrsina_ha": 1.5583030223938692,
        "seq_id": 60,
        "GlobalID": "dc53ce7b-a135-4ffc-aa7d-3dc85491758b"
      }
    },
    {
      "type": "Feature",
      "id": 71,
      "geometry": {
        "type": "MultiPolygon",
        "coordinates": [
          [
            [
              [15.8690618587248, 45.8147803669907],
              [15.8683595004149, 45.8147682991797],
              [15.868334997581, 45.8153821983171],
              [15.869014040475, 45.8153859502851],
              [15.8690618587248, 45.8147803669907]
            ]
          ],
          [
            [
              [15.8675492090273, 45.8153984442121],
              [15.8674282359172, 45.8147261413489],
              [15.8670755987138, 45.8147661063618],
              [15.8672036517751, 45.8154216811244],
              [15.8675492090273, 45.8153984442121]
            ]
          ]
        ]
      },
      "properties": {
        "FID": 71,
        "NAZIV": "Super Konzum Gajnice",
        "Tip": "Lokacije za prihvat osoba",
        "G_cetvrt": "Podsused-Vrapče",
        "Povrsina_ha": 0.56759825412364173,
        "seq_id": 49,
        "GlobalID": "a1e7b1e2-61bf-4ee2-ba33-9e5f8677297c"
      }
    },
    {
      "type": "Feature",
      "id": 73,
      "geometry": {
        "type": "Polygon",
        "coordinates": [
          [
            [15.9350552935856, 45.7042807814467],
            [15.9355861442142, 45.7052010426382],
            [15.9364711101615, 45.7049605435446],
            [15.9359440261404, 45.7040155700875],
            [15.9350552935856, 45.7042807814467]
          ]
        ]
      },
      "properties": {
        "FID": 73,
        "NAZIV": "NK Dinamo Odranski Obrež",
        "Tip": "Lokacije za prihvat osoba",
        "G_cetvrt": "Brezovica",
        "Povrsina_ha": 0.83152126375734137,
        "seq_id": 3,
        "GlobalID": "dfd70768-5e86-4908-8cd6-01b3b60d6521"
      }
    }
  ]
}
