{
  "type": "FeatureCollection",
  "name": "gradski_vrt",
  "crs": { "type": "name", "properties": { "name": "urn:ogc:def:crs:OGC:1.3:CRS84" } },
  "features": [
    {
      "type": "Feature",
      "properties": {
        "OBJECTID": 1,
        "naziv": "Gradski vrt Mandlova",
        "adresa": "Ulica Dragutina Mandla",
        "grad_cetvrt": "Gradska četvrt Maksimir",
        "telefon": "01 658 5650, 01 658 5581, 091 233 0269",
        "kontakt": "Gradski ured za gospodarstvo, ekološku održivost i strategijsko planiranje, Av. Dubrovnik 12/IV, soba 319, radnim  danom od 08:30 do 15:30",
        "godina_otvaranja": "2015.",
        "br_vr_parcela": 128,
        "br_korisnika": 128,
        "nadlezan": "Gradski ured za gospodarstvo, ekološku održivost i strategijsko planiranje",
        "izvor": "Gradski ured za gospodarstvo, ekološku održivost i strategijsko planiranje",
        "izradio": "Gradski ured za gospodarstvo, ekološku održivost i strategijsko planiranje",
        "SHAPE_Length": 0.0054826824112904947,
        "SHAPE_Area": 1.3162395943885053e-6
      },
      "geometry": {
        "type": "MultiPolygon",
        "coordinates": [
          [
            [
              [16.034134895000022, 45.821376298000075],
              [16.034015866000061, 45.82168467200006],
              [16.033794225000065, 45.822237791000077],
              [16.033701799000028, 45.82244565600007],
              [16.033641426000031, 45.822559955000031],
              [16.033974358000023, 45.822631623000063],
              [16.034309948000043, 45.822699198000066],
              [16.034357212000032, 45.822563101000071],
              [16.034486963000063, 45.822220679000054],
              [16.034640216000071, 45.82180571400005],
              [16.034765871000047, 45.821466021000049],
              [16.034894441000063, 45.821119760000045],
              [16.035029246000022, 45.820775906000051],
              [16.035005445000024, 45.820771077000074],
              [16.034972222000022, 45.82075714900003],
              [16.034375080000075, 45.820623196000042],
              [16.034285262000026, 45.820943568000075],
              [16.034256307000078, 45.821028951000073],
              [16.034134895000022, 45.821376298000075]
            ]
          ]
        ]
      }
    },
    {
      "type": "Feature",
      "properties": {
        "OBJECTID": 2,
        "naziv": "Gradski vrt Borovje",
        "adresa": "Ulica I. Gardijske brigade \"Tigrovi\"",
        "grad_cetvrt": "Gradska četvrt Peščenica - Žitnjak",
        "telefon": "01 658 5650, 01 658 5581, 091 233 0269",
        "kontakt": "Gradski ured za gospodarstvo, ekološku održivost i strategijsko planiranje, Av. Dubrovnik 12/IV, soba 319, radnim  danom od 08:30 do 15:30",
        "godina_otvaranja": "2013.",
        "br_vr_parcela": 652,
        "br_korisnika": 353,
        "nadlezan": "Gradski ured za gospodarstvo, ekološku održivost i strategijsko planiranje",
        "izvor": "Gradski ured za gospodarstvo, ekološku održivost i strategijsko planiranje",
        "izradio": "Gradski ured za gospodarstvo, ekološku održivost i strategijsko planiranje",
        "SHAPE_Length": 0.012100764151981235,
        "SHAPE_Area": 8.9903116936610941e-6
      },
      "geometry": {
        "type": "MultiPolygon",
        "coordinates": [
          [
            [
              [16.01280097800003, 45.79008852700008],
              [16.012818391000053, 45.79010829300006],
              [16.012985399000058, 45.790296284000078],
              [16.01631375200003, 45.790326167000046],
              [16.016321231000063, 45.790273931000058],
              [16.016322521000063, 45.790256864000071],
              [16.016323446000058, 45.790252225000074],
              [16.01634708000006, 45.789888370000028],
              [16.01639018700007, 45.789357915000039],
              [16.016376156000035, 45.789228681000054],
              [16.016329779000046, 45.789076902000033],
              [16.016235433000077, 45.788816672000053],
              [16.016162062000035, 45.788609713000028],
              [16.016048850000061, 45.788298460000078],
              [16.016048119000061, 45.788296410000044],
              [16.01603809900007, 45.788268330000051],
              [16.015876922000075, 45.787816673000066],
              [16.015855380000062, 45.787753165000026],
              [16.01522671500004, 45.787736860000052],
              [16.014121765000027, 45.787790027000028],
              [16.013697774000036, 45.78783136100003],
              [16.013314554000033, 45.78790934400007],
              [16.012940468000068, 45.788041196000052],
              [16.012519765000036, 45.788216370000043],
              [16.012236108000025, 45.788368640000044],
              [16.012424771000042, 45.788574648000065],
              [16.012263506000068, 45.78863825500008],
              [16.012460060000024, 45.788819943000078],
              [16.012496276000036, 45.788854535000041],
              [16.012530307000077, 45.788892752000038],
              [16.012561689000052, 45.788931740000066],
              [16.012592486000074, 45.788970959000039],
              [16.012618667000027, 45.789014053000074],
              [16.012634945000059, 45.789054831000044],
              [16.012643312000023, 45.789099837000037],
              [16.012648547000026, 45.789145221000069],
              [16.012654411000028, 45.78923388100003],
              [16.012660329000028, 45.789348812000071],
              [16.012668045000055, 45.789480601000037],
              [16.012676082000041, 45.789614563000043],
              [16.012652038000056, 45.789631351000025],
              [16.012715351000054, 45.789990456000055],
              [16.012766542000065, 45.790050718000032],
              [16.01280097800003, 45.79008852700008]
            ]
          ]
        ]
      }
    },
    {
      "type": "Feature",
      "properties": {
        "OBJECTID": 3,
        "naziv": "Gradski vrt Sesvete - Senjska ulica",
        "adresa": "Senjska ulica",
        "grad_cetvrt": "Gradska četvrt Sesvete",
        "telefon": "01 658 5650, 01 658 5581, 091 233 0269",
        "kontakt": "Gradski ured za gospodarstvo, ekološku održivost i strategijsko planiranje, Av. Dubrovnik 12/IV, soba 319, radnim  danom od 08:30 do 15:30",
        "godina_otvaranja": "2013.",
        "br_vr_parcela": 104,
        "br_korisnika": 104,
        "nadlezan": "Gradski ured za gospodarstvo, ekološku održivost i strategijsko planiranje",
        "izvor": "Gradski ured za gospodarstvo, ekološku održivost i strategijsko planiranje",
        "izradio": "Gradski ured za gospodarstvo, ekološku održivost i strategijsko planiranje",
        "SHAPE_Length": 0.0050570732813620609,
        "SHAPE_Area": 1.2427727331194525e-6
      },
      "geometry": {
        "type": "MultiPolygon",
        "coordinates": [
          [
            [
              [16.105639177000057, 45.822536426000056],
              [16.105694222000068, 45.822642536000046],
              [16.105445584000051, 45.822701631000029],
              [16.105673625000065, 45.823296026000037],
              [16.107455311000024, 45.822889048000036],
              [16.107147442000041, 45.822275111000067],
              [16.107100923000075, 45.822283730000038],
              [16.106842677000031, 45.822328490000075],
              [16.106557439000028, 45.822386450000067],
              [16.106263085000023, 45.822435301000041],
              [16.105953966000072, 45.822483202000058],
              [16.105706420000047, 45.82252691900004],
              [16.105639177000057, 45.822536426000056]
            ]
          ]
        ]
      }
    },
    {
      "type": "Feature",
      "properties": {
        "OBJECTID": 4,
        "naziv": "Gradski vrt Sopot I.",
        "adresa": "Ulica Nikole Andrića",
        "grad_cetvrt": "Gradska četvrt Novi Zagreb - Istok",
        "telefon": "01 658 5650, 01 658 5581, 091 233 0269",
        "kontakt": "Gradski ured za gospodarstvo, ekološku održivost i strategijsko planiranje, Av. Dubrovnik 12/IV, soba 319, radnim  danom od 08:30 do 15:30",
        "godina_otvaranja": "2013.",
        "br_vr_parcela": 229,
        "br_korisnika": 229,
        "nadlezan": "Gradski ured za gospodarstvo, ekološku održivost i strategijsko planiranje",
        "izvor": "Gradski ured za gospodarstvo, ekološku održivost i strategijsko planiranje",
        "izradio": "Gradski ured za gospodarstvo, ekološku održivost i strategijsko planiranje",
        "SHAPE_Length": 0.0064754236942922878,
        "SHAPE_Area": 2.177931359513871e-6
      },
      "geometry": {
        "type": "MultiPolygon",
        "coordinates": [
          [
            [
              [15.988326246000042, 45.770071281000071],
              [15.986074255000062, 45.77034407900004],
              [15.986104554000065, 45.770473283000058],
              [15.986141693000036, 45.770597],
              [15.986199013000032, 45.770858149000048],
              [15.986312257000066, 45.77128549400004],
              [15.987166458000047, 45.77117710400006],
              [15.988562659000024, 45.771010177000051],
              [15.988455589000068, 45.770576782000035],
              [15.988384601000064, 45.770327767000026],
              [15.988357952000058, 45.770201246000056],
              [15.988326246000042, 45.770071281000071]
            ]
          ]
        ]
      }
    },
    {
      "type": "Feature",
      "properties": {
        "OBJECTID": 5,
        "naziv": "Gradski vrt Klara I.",
        "adresa": "Čavoglavska ulica",
        "grad_cetvrt": "Gradska četvrt Novi Zagreb - zapad",
        "telefon": "01 658 5650, 01 658 5581, 091 233 0269",
        "kontakt": "Gradski ured za gospodarstvo, ekološku održivost i strategijsko planiranje, Av. Dubrovnik 12/IV, soba 319, radnim  danom od 08:30 do 15:30",
        "godina_otvaranja": "2013.",
        "br_vr_parcela": 117,
        "br_korisnika": 117,
        "nadlezan": "Gradski ured za gospodarstvo, ekološku održivost i strategijsko planiranje",
        "izvor": "Gradski ured za gospodarstvo, ekološku održivost i strategijsko planiranje",
        "izradio": "Gradski ured za gospodarstvo, ekološku održivost i strategijsko planiranje",
        "SHAPE_Length": 0.0062522722729908397,
        "SHAPE_Area": 1.7021227393195063e-6
      },
      "geometry": {
        "type": "MultiPolygon",
        "coordinates": [
          [
            [
              [15.964395281000066, 45.761223298000061],
              [15.964391859000045, 45.761272183000074],
              [15.964390412000057, 45.761292814000058],
              [15.964392040000064, 45.761328263000053],
              [15.964395413000034, 45.761372841000025],
              [15.964401334000058, 45.761451106000038],
              [15.964422679000052, 45.761733266000078],
              [15.964426708000076, 45.761787251000044],
              [15.96443507500004, 45.761899459000063],
              [15.964457160000052, 45.762216955000042],
              [15.964567526000053, 45.762449225000069],
              [15.964744938000024, 45.762449211000046],
              [15.964837900000077, 45.762356462000071],
              [15.964988924000068, 45.762140470000077],
              [15.965140747000078, 45.761848968000038],
              [15.965204777000054, 45.761708096000064],
              [15.965214106000076, 45.761674620000065],
              [15.965273361000072, 45.761422389000074],
              [15.965600355000049, 45.761024752000026],
              [15.96562205400005, 45.760883680000063],
              [15.965472976000058, 45.760858545000076],
              [15.965462936000051, 45.760695199000054],
              [15.965779532000056, 45.760683320000055],
              [15.965730693000069, 45.760569543000031],
              [15.965708371000062, 45.760526426000069],
              [15.96568966600006, 45.760496626000077],
              [15.965680567000049, 45.760484244000054],
              [15.965664627000024, 45.760467474000052],
              [15.965646222000032, 45.760455172000036],
              [15.965623620000031, 45.760444686000028],
              [15.965588353000044, 45.760435789000041],
              [15.965445316000057, 45.760408526000049],
              [15.965230628000029, 45.760372376000078],
              [15.965010191000033, 45.760346064000032],
              [15.964797336000061, 45.760342526000045],
              [15.964804600000036, 45.760479380000049],
              [15.96454234600003, 45.760485407000033],
              [15.964535907000027, 45.760956340000064],
              [15.964517131000036, 45.761070534000055],
              [15.964493059000063, 45.761216933000071],
              [15.964395281000066, 45.761223298000061]
            ]
          ]
        ]
      }
    },
    {
      "type": "Feature",
      "properties": {
        "OBJECTID": 6,
        "naziv": "Gradski vrt Stenjevec",
        "adresa": "Ulica Stenjevec",
        "grad_cetvrt": "Gradska četvrt Stenjevec",
        "telefon": "01 658 5650, 01 658 5581, 091 233 0269",
        "kontakt": "Gradski ured za gospodarstvo, ekološku održivost i strategijsko planiranje, Av. Dubrovnik 12/IV, soba 319, radnim  danom od 08:30 do 15:30",
        "godina_otvaranja": "2014.",
        "br_vr_parcela": 478,
        "br_korisnika": 478,
        "nadlezan": "Gradski ured za gospodarstvo, ekološku održivost i strategijsko planiranje",
        "izvor": "Gradski ured za gospodarstvo, ekološku održivost i strategijsko planiranje",
        "izradio": "Gradski ured za gospodarstvo, ekološku održivost i strategijsko planiranje",
        "SHAPE_Length": 0.0093424409710312489,
        "SHAPE_Area": 4.5197925640207879e-6
      },
      "geometry": {
        "type": "MultiPolygon",
        "coordinates": [
          [
            [
              [15.882744401000025, 45.805521425000052],
              [15.882256614000028, 45.805618375000051],
              [15.88200424200005, 45.805681777000075],
              [15.881994872000064, 45.805734501000074],
              [15.881989654000051, 45.805787997000039],
              [15.881985479000036, 45.805869058000042],
              [15.881994739000049, 45.805994564000059],
              [15.881983883000032, 45.806151618000058],
              [15.881942417000062, 45.806489915000043],
              [15.881387291000067, 45.806460772000037],
              [15.881179945000042, 45.80803888500003],
              [15.881141333000073, 45.808250116000067],
              [15.881178344000034, 45.80832305000007],
              [15.88264560500005, 45.807926516000066],
              [15.883129599000029, 45.807795216000045],
              [15.884003686000028, 45.807557693000035],
              [15.883983819000036, 45.807525931000043],
              [15.883795711000062, 45.807242848000044],
              [15.883617832000027, 45.806991191000066],
              [15.883404390000067, 45.80660176400005],
              [15.883317405000071, 45.806465924000065],
              [15.883266558000059, 45.80639603000003],
              [15.883238062000032, 45.806356717000028],
              [15.883128520000071, 45.806231738000065],
              [15.883038327000065, 45.806104859000072],
              [15.882785411000043, 45.805598819000068],
              [15.882744401000025, 45.805521425000052]
            ]
          ]
        ]
      }
    },
    {
      "type": "Feature",
      "properties": {
        "OBJECTID": 7,
        "naziv": "Gradski vrt Sopot II.",
        "adresa": "Ulica Nikole Andrića",
        "grad_cetvrt": "Gradska četvrt Novi Zagreb - Istok",
        "telefon": "01 658 5650, 01 658 5581, 091 233 0269",
        "kontakt": "Gradski ured za gospodarstvo, ekološku održivost i strategijsko planiranje, Av. Dubrovnik 12/IV, soba 319, radnim  danom od 08:30 do 15:30",
        "godina_otvaranja": "2013.",
        "br_vr_parcela": 65,
        "br_korisnika": 65,
        "nadlezan": "Gradski ured za gospodarstvo, ekološku održivost i strategijsko planiranje",
        "izvor": "Gradski ured za gospodarstvo, ekološku održivost i strategijsko planiranje",
        "izradio": "Gradski ured za gospodarstvo, ekološku održivost i strategijsko planiranje",
        "SHAPE_Length": 0.0051686849069421236,
        "SHAPE_Area": 7.39139806367936e-7
      },
      "geometry": {
        "type": "MultiPolygon",
        "coordinates": [
          [
            [
              [15.98862437400004, 45.771259366000038],
              [15.986804248000055, 45.771480476000079],
              [15.986710421000055, 45.771492917000046],
              [15.986370188000024, 45.771533845000079],
              [15.986426288000075, 45.771782416000065],
              [15.986689284000022, 45.771826697000051],
              [15.986713360000067, 45.771831645000077],
              [15.98842482200007, 45.771628858000042],
              [15.988404041000024, 45.771551902000056],
              [15.988679378000029, 45.771525770000039],
              [15.98862437400004, 45.771259366000038]
            ]
          ]
        ]
      }
    },
    {
      "type": "Feature",
      "properties": {
        "OBJECTID": 8,
        "naziv": "Gradski vrt Sloboština",
        "adresa": "Ulica Karela Zahradnika",
        "grad_cetvrt": "Gradska četvrt Novi Zagreb - Istok",
        "telefon": "01 658 5650, 01 658 5581, 091 233 0269",
        "kontakt": "Gradski ured za gospodarstvo, ekološku održivost i strategijsko planiranje, Av. Dubrovnik 12/IV, soba 319, radnim  danom od 08:30 do 15:30",
        "godina_otvaranja": "2014.",
        "br_vr_parcela": 33,
        "br_korisnika": 33,
        "nadlezan": "Gradski ured za gospodarstvo, ekološku održivost i strategijsko planiranje",
        "izvor": "Gradski ured za gospodarstvo, ekološku održivost i strategijsko planiranje",
        "izradio": "Gradski ured za gospodarstvo, ekološku održivost i strategijsko planiranje",
        "SHAPE_Length": 0.0040456915286678601,
        "SHAPE_Area": 3.2867291798036031e-7
      },
      "geometry": {
        "type": "MultiPolygon",
        "coordinates": [
          [
            [
              [15.983441814000059, 45.761894317000042],
              [15.98344634800003, 45.761962674000074],
              [15.98344817800006, 45.762028727000029],
              [15.983447770000055, 45.762081306000027],
              [15.984254988000032, 45.762051081000038],
              [15.985281503000067, 45.762017071000059],
              [15.985284691000061, 45.761965866000025],
              [15.985288486000059, 45.761904915000059],
              [15.985292227000059, 45.761844816000064],
              [15.983441814000059, 45.761894317000042]
            ]
          ]
        ]
      }
    },
    {
      "type": "Feature",
      "properties": {
        "OBJECTID": 9,
        "naziv": "Gradski vrt Sesvete - Ulica Rimski put",
        "adresa": "Ulica Rimski put",
        "grad_cetvrt": "Gradska četvrt Sesvete",
        "telefon": "01 658 5650, 01 658 5581, 091 233 0269",
        "kontakt": "Gradski ured za gospodarstvo, ekološku održivost i strategijsko planiranje, Av. Dubrovnik 12/IV, soba 319, radnim  danom od 08:30 do 15:30",
        "godina_otvaranja": "2014.",
        "br_vr_parcela": 66,
        "br_korisnika": 66,
        "nadlezan": "Gradski ured za gospodarstvo, ekološku održivost i strategijsko planiranje",
        "izvor": "Gradski ured za gospodarstvo, ekološku održivost i strategijsko planiranje",
        "izradio": "Gradski ured za gospodarstvo, ekološku održivost i strategijsko planiranje",
        "SHAPE_Length": 0.0043926901601312168,
        "SHAPE_Area": 6.9141181011527623e-7
      },
      "geometry": {
        "type": "MultiPolygon",
        "coordinates": [
          [
            [
              [16.108894048000025, 45.807767655000077],
              [16.108662389000074, 45.80771567000005],
              [16.108541182000067, 45.807698704000074],
              [16.108318945000065, 45.807689585000048],
              [16.108176502000049, 45.807654998000032],
              [16.107053664000034, 45.807626977000041],
              [16.107044120000069, 45.807626766000055],
              [16.107034574000068, 45.807626609000067],
              [16.107025027000077, 45.807626506000076],
              [16.107015478000051, 45.807626457000026],
              [16.107007280000062, 45.807627293000053],
              [16.10699925800003, 45.807628738000062],
              [16.106991504000064, 45.807630777000043],
              [16.106984107000073, 45.807633385000031],
              [16.106977151000024, 45.80763653200006],
              [16.106970718000071, 45.807640183000046],
              [16.106964881000067, 45.807644295000046],
              [16.106959710000069, 45.807648820000054],
              [16.106955260000063, 45.807653707000043],
              [16.106951585000047, 45.807658899000046],
              [16.106948726000041, 45.807664337000062],
              [16.106946718000074, 45.80766995700003],
              [16.106945583000027, 45.807675697000036],
              [16.106945334000045, 45.807681488000071],
              [16.106945972000062, 45.807687264000037],
              [16.106952092000029, 45.807719762000033],
              [16.107316664000052, 45.807856721000064],
              [16.107737989000043, 45.808018271000037],
              [16.107961515000056, 45.808120447000078],
              [16.108380960000034, 45.808367799000052],
              [16.108498807000046, 45.808197410000048],
              [16.108640716000025, 45.808036245000039],
              [16.108876095000028, 45.807796997000025],
              [16.108887160000052, 45.807782951000036],
              [16.108894048000025, 45.807767655000077]
            ]
          ]
        ]
      }
    },
    {
      "type": "Feature",
      "properties": {
        "OBJECTID": 10,
        "naziv": "Gradski vrt Savica",
        "adresa": "Ulica Prisavlje",
        "grad_cetvrt": "Gradska četvrt Trnje",
        "telefon": "01 658 5650, 01 658 5581, 091 233 0269",
        "kontakt": "Gradski ured za gospodarstvo, ekološku održivost i strategijsko planiranje, Av. Dubrovnik 12/IV, soba 319, radnim  danom od 08:30 do 15:30",
        "godina_otvaranja": "2013.",
        "br_vr_parcela": 93,
        "br_korisnika": 93,
        "nadlezan": "Gradski ured za gospodarstvo, ekološku održivost i strategijsko planiranje",
        "izvor": "Gradski ured za gospodarstvo, ekološku održivost i strategijsko planiranje",
        "izradio": "Gradski ured za gospodarstvo, ekološku održivost i strategijsko planiranje",
        "SHAPE_Length": 0.0056366440495162241,
        "SHAPE_Area": 1.4865133955027398e-6
      },
      "geometry": {
        "type": "MultiPolygon",
        "coordinates": [
          [
            [
              [15.997011020000059, 45.789858551000066],
              [15.99780484200005, 45.789755122000031],
              [15.998331604000043, 45.789709996000056],
              [15.998692463000054, 45.789683023000066],
              [15.998984774000064, 45.78966676400006],
              [15.998982309000041, 45.788620066000078],
              [15.998701002000075, 45.788719619000062],
              [15.998448956000061, 45.788786878000053],
              [15.998112981000077, 45.788914892000037],
              [15.998031512000068, 45.788955016000045],
              [15.99768496400003, 45.789124958000059],
              [15.997611334000055, 45.789162041000054],
              [15.997566745000029, 45.789172802000053],
              [15.997506252000051, 45.789197836000028],
              [15.99749219000006, 45.789222048000056],
              [15.997382602000073, 45.789277238000068],
              [15.997241522000024, 45.789332221000052],
              [15.997154959000056, 45.789352548000068],
              [15.997010315000068, 45.78938011200006],
              [15.997011020000059, 45.789858551000066]
            ]
          ]
        ]
      }
    },
    {
      "type": "Feature",
      "properties": {
        "OBJECTID": 11,
        "naziv": "Gradski vrt Prečko",
        "adresa": "Ulica Savska Opatovina I. odvojak",
        "grad_cetvrt": "Gradska četvrt Stenjevec",
        "telefon": "01 658 5650, 01 658 5581, 091 233 0269",
        "kontakt": "Gradski ured za gospodarstvo, ekološku održivost i strategijsko planiranje, Av. Dubrovnik 12/IV, soba 319, radnim  danom od 08:30 do 15:30",
        "godina_otvaranja": "2014.",
        "br_vr_parcela": 61,
        "br_korisnika": 61,
        "nadlezan": "Gradski ured za gospodarstvo, ekološku održivost i strategijsko planiranje",
        "izvor": "Gradski ured za gospodarstvo, ekološku održivost i strategijsko planiranje",
        "izradio": "Gradski ured za gospodarstvo, ekološku održivost i strategijsko planiranje",
        "SHAPE_Length": 0.0035546225647942503,
        "SHAPE_Area": 6.43158570588461e-7
      },
      "geometry": {
        "type": "MultiPolygon",
        "coordinates": [
          [
            [
              [15.890517460000069, 45.793619666000041],
              [15.890527766000048, 45.793469732000062],
              [15.890528567000047, 45.793248341000037],
              [15.89052939100003, 45.793020507000051],
              [15.890522318000023, 45.792623182000057],
              [15.890521275000026, 45.79238934600005],
              [15.890233368000054, 45.792391766000037],
              [15.889842135000038, 45.79239276800007],
              [15.89002731000005, 45.793054527000038],
              [15.890060505000065, 45.793251993000069],
              [15.89012013200005, 45.79360667900005],
              [15.890264977000072, 45.79360777800008],
              [15.890392528000064, 45.793611572000032],
              [15.890517460000069, 45.793619666000041]
            ]
          ]
        ]
      }
    },
    {
      "type": "Feature",
      "properties": {
        "OBJECTID": 12,
        "naziv": "Gradski vrt Klara II.",
        "adresa": "Mrkšina ulica",
        "grad_cetvrt": "Gradska četvrt Novi Zagreb - zapad",
        "telefon": "01 658 5650, 01 658 5581, 091 233 0269",
        "kontakt": "Gradski ured za gospodarstvo, ekološku održivost i strategijsko planiranje, Av. Dubrovnik 12/IV, soba 319, radnim  danom od 08:30 do 15:30",
        "godina_otvaranja": "2016.",
        "br_vr_parcela": 64,
        "br_korisnika": 64,
        "nadlezan": "Gradski ured za gospodarstvo, ekološku održivost i strategijsko planiranje",
        "izvor": "Gradski ured za gospodarstvo, ekološku održivost i strategijsko planiranje",
        "izradio": "Gradski ured za gospodarstvo, ekološku održivost i strategijsko planiranje",
        "SHAPE_Length": 0.0033407184862389088,
        "SHAPE_Area": 6.1829585517528889e-7
      },
      "geometry": {
        "type": "MultiPolygon",
        "coordinates": [
          [
            [
              [15.967410560000076, 45.755222200000048],
              [15.96782842600004, 45.754842653000026],
              [15.968189339000048, 45.754514831000051],
              [15.967695341000024, 45.754166859000065],
              [15.967434407000042, 45.754418863000069],
              [15.967029775000071, 45.75480963900003],
              [15.966903518000038, 45.754927089000034],
              [15.967410560000076, 45.755222200000048]
            ]
          ]
        ]
      }
    },
    {
      "type": "Feature",
      "properties": {
        "OBJECTID": 13,
        "naziv": "Gradski vrt Podsused",
        "adresa": "Ulica Susedsko polje",
        "grad_cetvrt": "Gradska četvrt Podsused - Vrapče",
        "telefon": "01 658 5650, 01 658 5581, 091 233 0269",
        "kontakt": "Gradski ured za gospodarstvo, ekološku održivost i strategijsko planiranje, Av. Dubrovnik 12/IV, soba 319, radnim  danom od 08:30 do 15:30",
        "godina_otvaranja": "2018.",
        "br_vr_parcela": 38,
        "br_korisnika": 38,
        "nadlezan": "Gradski ured za gospodarstvo, ekološku održivost i strategijsko planiranje",
        "izvor": "Gradski ured za gospodarstvo, ekološku održivost i strategijsko planiranje",
        "izradio": "Gradski ured za gospodarstvo, ekološku održivost i strategijsko planiranje",
        "SHAPE_Length": 0.005872298690339596,
        "SHAPE_Area": 4.194674059631007e-7
      },
      "geometry": {
        "type": "MultiPolygon",
        "coordinates": [
          [
            [
              [15.842811079000057, 45.809223785000029],
              [15.842676987000061, 45.809127276000027],
              [15.84175764500003, 45.809621460000074],
              [15.840931773000023, 45.810044012000048],
              [15.840350820000026, 45.810340112000063],
              [15.840321768000024, 45.810479502000078],
              [15.840287509000063, 45.810558667000066],
              [15.841049568000074, 45.810158516000058],
              [15.841757702000052, 45.809791432000054],
              [15.842811079000057, 45.809223785000029]
            ]
          ]
        ]
      }
    },
    {
      "type": "Feature",
      "properties": {
        "OBJECTID": 14,
        "naziv": "Gradski vrt Podbrežje",
        "adresa": "Stambeno naselje Podbrežje",
        "grad_cetvrt": "Gradska četvrt Novi Zagreb - zapad",
        "telefon": "01 658 5650, 01 658 5581, 091 233 0269",
        "kontakt": "Gradski ured za gospodarstvo, ekološku održivost i strategijsko planiranje, Av. Dubrovnik 12/IV, soba 319, radnim  danom od 08:30 do 15:30",
        "godina_otvaranja": "2021.",
        "br_vr_parcela": 54,
        "br_korisnika": 54,
        "nadlezan": "Gradski ured za gospodarstvo, ekološku održivost i strategijsko planiranje",
        "izvor": "Gradski ured za gospodarstvo, ekološku održivost i strategijsko planiranje",
        "izradio": "Gradski ured za gospodarstvo, ekološku održivost i strategijsko planiranje",
        "SHAPE_Length": 0.0029640300506981786,
        "SHAPE_Area": 5.4061021630685871e-7
      },
      "geometry": {
        "type": "MultiPolygon",
        "coordinates": [
          [
            [
              [15.975609362000057, 45.765108632000079],
              [15.975562715000024, 45.765106349000064],
              [15.974954658000058, 45.765087450000067],
              [15.974908905000063, 45.765085800000065],
              [15.974908706000065, 45.765093357000069],
              [15.974904365000043, 45.765240815000027],
              [15.974900626000021, 45.765365330000066],
              [15.974898130000042, 45.765453140000034],
              [15.974896839000053, 45.765494884000077],
              [15.974889671000028, 45.765738158000033],
              [15.975727672000062, 45.765750285000081],
              [15.975738190000072, 45.765396081000063],
              [15.975740312000028, 45.765320507000069],
              [15.975741793000054, 45.765272194000033],
              [15.975744598000063, 45.765178628000058],
              [15.97574647600004, 45.765115380000054],
              [15.975609362000057, 45.765108632000079]
            ]
          ]
        ]
      }
    },
    {
      "type": "Feature",
      "properties": {
        "OBJECTID": 15,
        "naziv": "Terapijski vrt Sesvete",
        "adresa": "Industrijska cesta bb (u okviru dvorišta bivše tvornice \"Sljeme\" Sesvete)",
        "grad_cetvrt": "Sesvete",
        "telefon": "01/6585  650",
        "kontakt": "Gradski ured za gospodarstvo, ekološku održivost i strategijsko planiranje, Av. Dubrovnik 12/IV, soba 319, radnim  danom od 08:30 do 15:30",
        "godina_otvaranja": "2021.",
        "br_vr_parcela": 3,
        "br_korisnika": 3,
        "nadlezan": "Gradski ured za gospodarstvo, ekološku održivost i strategijsko planiranje",
        "izvor": "Gradski ured za gospodarstvo, ekološku održivost i strategijsko planiranje",
        "izradio": "Gradski ured za gospodarstvo, ekološku održivost i strategijsko planiranje",
        "SHAPE_Length": 0.0036389177612105557,
        "SHAPE_Area": 7.2004827366537527e-7
      },
      "geometry": {
        "type": "MultiPolygon",
        "coordinates": [
          [
            [
              [16.106993461000059, 45.821236859000066],
              [16.108152175000043, 45.820892919000073],
              [16.107787395000059, 45.820384483000055],
              [16.106671596000069, 45.820668610000041],
              [16.106993461000059, 45.821236859000066]
            ]
          ]
        ]
      }
    }
  ]
}
